{
  "type": "FeatureCollection",
  "features": [
    {
      "type": "Feature",
      "properties": {
        "reservoir_name": "BEARDSLEY LAKE",
        "cdec_station_id": "BRD",
        "source": "osm_tight_polygon_75m_buffer"
      },
      "geometry": {
        "type": "Polygon",
        "coordinates": [
          [
            [
              -120.08020454201879,
              38.20218514630843
            ],
            [
              -120.08019013125006,
              38.20220672994023
            ],
            [
              -120.08013732607283,
              38.20226829174109
            ],
            [
              -120.0795735093476,
              38.20285342919239
            ],
            [
              -120.07868787244287,
              38.203809396959244
            ],
            [
              -120.07868293613207,
              38.20381467125538
            ],
            [
              -120.0781463896248,
              38.2043821636733
            ],
            [
              -120.0779024514086,
              38.20473882580189
            ],
            [
              -120.0779079121064,
              38.204759731226176
            ],
            [
              -120.07791673214471,
              38.2048269648645
            ],
            [
              -120.07791699145196,
              38.20489455744735
            ],
            [
              -120.07790868740726,
              38.204961831987085
            ],
            [
              -120.07789190315835,
              38.205028114679585
            ],
            [
              -120.07786680678977,
              38.205092741653104
            ],
            [
              -120.07783364964014,
              38.20515506561752
            ],
            [
              -120.07779276378571,
              38.205214462347655
            ],
            [
              -120.07745856623546,
              38.205646864518194
            ],
            [
              -120.07739510953336,
              38.20571817288948
            ],
            [
              -120.07711176002833,
              38.205996506166166
            ],
            [
              -120.07684061097629,
              38.20639603142011
            ],
            [
              -120.0766927781713,
              38.20669605136573
            ],
            [
              -120.07665448430735,
              38.20676279955736
            ],
            [
              -120.07660725238551,
              38.20682588189553
            ],
            [
              -120.07655163823829,
              38.20688455598912
            ],
            [
              -120.07648829634994,
              38.20693813132436
            ],
            [
              -120.07622909161077,
              38.20713480646557
            ],
            [
              -120.07603558549188,
              38.207554974718654
            ],
            [
              -120.0759813511145,
              38.20774991382761
            ],
            [
              -120.07604809796766,
              38.208204830545206
            ],
            [
              -120.07605361702934,
              38.208269437203185
            ],
            [
              -120.07606752369101,
              38.208836537370665
            ],
            [
              -120.07606426051701,
              38.20890994701357
            ],
            [
              -120.07605091300883,
              38.208982642890746
            ],
            [
              -120.0760276390154,
              38.20905376513239
            ],
            [
              -120.07599471380158,
              38.209122472479706
            ],
            [
              -120.07568951487971,
              38.209667702059356
            ],
            [
              -120.07552059198883,
              38.20996993098342
            ],
            [
              -120.07553929240822,
              38.210300012078626
            ],
            [
              -120.07558071703087,
              38.210918882899776
            ],
            [
              -120.0755808709409,
              38.21098774432786
            ],
            [
              -120.07557213720703,
              38.21105626020418
            ],
            [
              -120.07555460659421,
              38.21112371828701
            ],
            [
              -120.07552846131476,
              38.21118941732886
            ],
            [
              -120.07532653689307,
              38.211618870119224
            ],
            [
              -120.07520021718503,
              38.21239304171052
            ],
            [
              -120.07518533646099,
              38.21245855549744
            ],
            [
              -120.07516235516701,
              38.212522595570576
            ],
            [
              -120.07513149646174,
              38.212584540014866
            ],
            [
              -120.07509306000617,
              38.21264378726517
            ],
            [
              -120.07504741905436,
              38.212699761948436
            ],
            [
              -120.07499501682899,
              38.21275192047167
            ],
            [
              -120.07493636221758,
              38.21279975630119
            ],
            [
              -120.07487202483055,
              38.212842804882065
            ],
            [
              -120.07480262946976,
              38.21288064814982
            ],
            [
              -120.07472885006044,
              38.21291291859083
            ],
            [
              -120.07465140310651,
              38.212939302811485
            ],
            [
              -120.07457421260192,
              38.212958745648834
            ],
            [
              -120.07458107065054,
              38.213007623681854
            ],
            [
              -120.07458197277032,
              38.21307491293435
            ],
            [
              -120.07457438351676,
              38.21314193902039
            ],
            [
              -120.07455837820619,
              38.21320803656378
            ],
            [
              -120.07453411570334,
              38.213272549404344
            ],
            [
              -120.07450183684523,
              38.213334837111866
            ],
            [
              -120.07446186205094,
              38.213394281343916
            ],
            [
              -120.0744145881415,
              38.21345029198445
            ],
            [
              -120.07436048440107,
              38.21350231300229
            ],
            [
              -120.07430008791877,
              38.213549827971256
            ],
            [
              -120.07423399825679,
              38.213592365197066
            ],
            [
              -120.0741628714987,
              38.2136295024003
            ],
            [
              -120.07408741373617,
              38.21366087090878
            ],
            [
              -120.07380756069652,
              38.21376349743171
            ],
            [
              -120.07365995672612,
              38.213879472891634
            ],
            [
              -120.07368859864837,
              38.213911259001364
            ],
            [
              -120.07373375106185,
              38.21396695237876
            ],
            [
              -120.07377178573205,
              38.21402586187035
            ],
            [
              -120.07380233820497,
              38.214087423024544
            ],
            [
              -120.07382511571642,
              38.214151045980955
            ],
            [
              -120.07383989999761,
              38.214216121121936
            ],
            [
              -120.07384654936762,
              38.21428202491367
            ],
            [
              -120.07384500009147,
              38.21434812588083
            ],
            [
              -120.07383526699188,
              38.21441379065697
            ],
            [
              -120.07381744330795,
              38.21447839005355
            ],
            [
              -120.07379169980265,
              38.21454130508869
            ],
            [
              -120.07375828312732,
              38.21460193291835
            ],
            [
              -120.07371751345903,
              38.21465969261282
            ],
            [
              -120.0736697814332,
              38.21471403072337
            ],
            [
              -120.07361554440102,
              38.21476442658553
            ],
            [
              -120.07355532204754,
              38.21481039730834
            ],
            [
              -120.07348969141222,
              38.21485150240168
            ],
            [
              -120.07341928135978,
              38.21488734799714
            ],
            [
              -120.07334476655424,
              38.214917590622505
            ],
            [
              -120.07326686099422,
              38.21494194049291
            ],
            [
              -120.07273945674747,
              38.215083641556525
            ],
            [
              -120.07265556602087,
              38.21510247734988
            ],
            [
              -120.07260129058498,
              38.215110062804996
            ],
            [
              -120.07259047532939,
              38.21513847835435
            ],
            [
              -120.0725592683086,
              38.215198702580764
            ],
            [
              -120.07252086114971,
              38.215256278283576
            ],
            [
              -120.07247561025972,
              38.215310671153546
            ],
            [
              -120.07242393555899,
              38.21536137641746
            ],
            [
              -120.07236631658478,
              38.21540792352275
            ],
            [
              -120.07230328804114,
              38.21544988050442
            ],
            [
              -120.07223543483698,
              38.21548685799415
            ],
            [
              -120.07216338665789,
              38.215518512833725
            ],
            [
              -120.07208781212225,
              38.21554455126
            ],
            [
              -120.07200941257625,
              38.21556473163118
            ],
            [
              -120.0715105231569,
              38.21567247090703
            ],
            [
              -120.07138976014893,
              38.21571313288441
            ],
            [
              -120.0713790976876,
              38.215733637424435
            ],
            [
              -120.07134078182695,
              38.215790958178566
            ],
            [
              -120.07129567922497,
              38.21584511791092
            ],
            [
              -120.07124420509791,
              38.21589561800838
            ],
            [
              -120.07118683332341,
              38.21594199354877
            ],
            [
              -120.07112409207805,
              38.215983817581446
            ],
            [
              -120.07105655897482,
              38.216020705058106
            ],
            [
              -120.0709848557453,
              38.21605231637794
            ],
            [
              -120.07090964251563,
              38.216078360514295
            ],
            [
              -120.07083161172872,
              38.216098597694256
            ],
            [
              -120.07075148176908,
              38.2161128416061
            ],
            [
              -120.07066999034846,
              38.21612096111482
            ],
            [
              -120.07058788771367,
              38.21612288146937
            ],
            [
              -120.07050592973893,
              38.216118584990944
            ],
            [
              -120.07038286010959,
              38.21610743412458
            ],
            [
              -120.07023955905932,
              38.21615942428016
            ],
            [
              -120.07015383948024,
              38.216186212101185
            ],
            [
              -120.07006496546377,
              38.21620557140177
            ],
            [
              -120.06997396792967,
              38.21621727761892
            ],
            [
              -120.0698819024317,
              38.216221194963964
            ],
            [
              -120.06935676054654,
              38.21622119486623
            ],
            [
              -120.06880547557373,
              38.21626598268433
            ],
            [
              -120.06835673524819,
              38.21650105759428
            ],
            [
              -120.06828915794489,
              38.21653302401725
            ],
            [
              -120.06744245266499,
              38.216892826720425
            ],
            [
              -120.06736585155166,
              38.21692160977175
            ],
            [
              -120.06728601521813,
              38.21694426916675
            ],
            [
              -120.06720372789617,
              38.216960582322585
            ],
            [
              -120.06711979789537,
              38.21697038899556
            ],
            [
              -120.06641189136947,
              38.21702498923225
            ],
            [
              -120.06636875613985,
              38.217027450115474
            ],
            [
              -120.06499452566015,
              38.217078354513596
            ],
            [
              -120.06464803224782,
              38.21715489334595
            ],
            [
              -120.06403442055596,
              38.21729553954751
            ],
            [
              -120.06380586605603,
              38.2173719467198
            ],
            [
              -120.06385477181318,
              38.2174628016334
            ],
            [
              -120.06388411541353,
              38.2175258609264
            ],
            [
              -120.06390537397344,
              38.217590907986995
            ],
            [
              -120.06391833717664,
              38.2176572993559
            ],
            [
              -120.06392287676509,
              38.21772437827383
            ],
            [
              -120.06391894780869,
              38.21779148117826
            ],
            [
              -120.06390658915062,
              38.21785794426761
            ],
            [
              -120.0638859230241,
              38.21792311006771
            ],
            [
              -120.06385715384394,
              38.21798633393602
            ],
            [
              -120.06382056618536,
              38.21804699043865
            ],
            [
              -120.06377652196943,
              38.21810447953765
            ],
            [
              -120.06372545688356,
              38.218158232527045
            ],
            [
              -120.06366787607182,
              38.21820771765893
            ],
            [
              -120.06360434913807,
              38.21825244540405
            ],
            [
              -120.06353550451162,
              38.21829197329468
            ],
            [
              -120.0634620232301,
              38.21832591030206
            ],
            [
              -120.0633846322024,
              38.218353920704786
            ],
            [
              -120.06330409701732,
              38.2183757274102
            ],
            [
              -120.06322121436952,
              38.2183911146957
            ],
            [
              -120.06269380963765,
              38.21846741519532
            ],
            [
              -120.06260480887765,
              38.2184765177676
            ],
            [
              -120.06251508928001,
              38.21847821960752
            ],
            [
              -120.0624256368641,
              38.21847250201294
            ],
            [
              -120.06233743471246,
              38.218459427821365
            ],
            [
              -120.06176833002125,
              38.21835042665629
            ],
            [
              -120.06167666831756,
              38.218328520928175
            ],
            [
              -120.06158868181814,
              38.21829867470858
            ],
            [
              -120.06150794072381,
              38.218266953261256
            ],
            [
              -120.06141695757098,
              38.21848518682592
            ],
            [
              -120.06143750758388,
              38.21884106705059
            ],
            [
              -120.0614371389635,
              38.218908368659484
            ],
            [
              -120.06142828180151,
              38.21897530717223
            ],
            [
              -120.06141102402657,
              38.21904121788875
            ],
            [
              -120.0613855369868,
              38.219105446313336
            ],
            [
              -120.06135207374912,
              38.21916735465386
            ],
            [
              -120.061310966587,
              38.219226328155216
            ],
            [
              -120.0612626236817,
              38.219281781204316
            ],
            [
              -120.06120752506945,
              38.21933316314528
            ],
            [
              -120.06114621787493,
              38.21937996374796
            ],
            [
              -120.06107931087857,
              38.219421718274795
            ],
            [
              -120.06100746847115,
              38.21945801209605
            ],
            [
              -120.0609314040564,
              38.21948848480732
            ],
            [
              -120.0608518729662,
              38.219512833808814
            ],
            [
              -120.06076966495979,
              38.21953081731024
            ],
            [
              -120.06068559638067,
              38.219542256732154
            ],
            [
              -120.06060050204954,
              38.21954703847928
            ],
            [
              -120.06051522697368,
              38.21954511506868
            ],
            [
              -120.0600660657015,
              38.21951726603131
            ],
            [
              -120.05961671825227,
              38.21955441312727
            ],
            [
              -120.05953436057167,
              38.21955806906829
            ],
            [
              -120.05945193920215,
              38.219555454896884
            ],
            [
              -120.05937021935596,
              38.219546594884235
            ],
            [
              -120.05928995973159,
              38.21953157128884
            ],
            [
              -120.05921190546934,
              38.21951052359262
            ],
            [
              -120.05913678123274,
              38.21948364720589
            ],
            [
              -120.0590652844804,
              38.21945119165298
            ],
            [
              -120.05859304089364,
              38.21921221557883
            ],
            [
              -120.05847177061473,
              38.21947424446475
            ],
            [
              -120.05843669435146,
              38.21953925726278
            ],
            [
              -120.0583932005333,
              38.21960102326827
            ],
            [
              -120.05834176517064,
              38.219658866465956
            ],
            [
              -120.05828295119626,
              38.21971215377348
            ],
            [
              -120.05821740230463,
              38.21976030197068
            ],
            [
              -120.05814583590706,
              38.219802784083164
            ],
            [
              -120.05806903527969,
              38.219839135150366
            ],
            [
              -120.05782743101197,
              38.21994032620494
            ],
            [
              -120.05733521412365,
              38.220474716574394
            ],
            [
              -120.05732959052452,
              38.22061591373596
            ],
            [
              -120.05732305043841,
              38.2206806633214
            ],
            [
              -120.0573086561821,
              38.22074461782285
            ],
            [
              -120.05728654087443,
              38.220807185695506
            ],
            [
              -120.05725690905146,
              38.220867788218776
            ],
            [
              -120.05722003477503,
              38.22092586484913
            ],
            [
              -120.05717625909854,
              38.22098087840515
            ],
            [
              -120.05712598691281,
              38.221032320036365
            ],
            [
              -120.05706968320136,
              38.221079713930074
            ],
            [
              -120.05700786873984,
              38.221122621712674
            ],
            [
              -120.05694111527903,
              38.22116064650459
            ],
            [
              -120.05691537347226,
              38.22117252236004
            ],
            [
              -120.05690586530895,
              38.22121454006411
            ],
            [
              -120.0568832897397,
              38.221277877112804
            ],
            [
              -120.0568530094499,
              38.22133918073793
            ],
            [
              -120.05681531177714,
              38.22139786917564
            ],
            [
              -120.05677055445176,
              38.22145338547866
            ],
            [
              -120.05671916220227,
              38.221505202801815
            ],
            [
              -120.05666162272519,
              38.22155282940206
            ],
            [
              -120.05659848205715,
              38.221595813305235
            ],
            [
              -120.05653033939295,
              38.22163374659561
            ],
            [
              -120.05645784139931,
              38.22166626928714
            ],
            [
              -120.05638167607782,
              38.22169307274005
            ],
            [
              -120.05630256623544,
              38.22171390258991
            ],
            [
              -120.05622126262472,
              38.2217285611618
            ],
            [
              -120.05613853681855,
              38.22173690934626
            ],
            [
              -120.0560551738874,
              38.221738867919704
            ],
            [
              -120.05597196494841,
              38.22173441829603
            ],
            [
              -120.05588969965693,
              38.22172360270322
            ],
            [
              -120.05551965612655,
              38.22166020041779
            ],
            [
              -120.05539572789331,
              38.22182836126345
            ],
            [
              -120.05535201244112,
              38.221881732098865
            ],
            [
              -120.05530213234839,
              38.22193162563816
            ],
            [
              -120.05524652914276,
              38.22197760022343
            ],
            [
              -120.05518569501561,
              38.222019248886795
            ],
            [
              -120.05512016846534,
              38.22205620295296
            ],
            [
              -120.05460666587287,
              38.22231790487218
            ],
            [
              -120.05453111398855,
              38.22235223896115
            ],
            [
              -120.05445152715514,
              38.22238033280193
            ],
            [
              -120.05436873086494,
              38.22240189499855
            ],
            [
              -120.05428358390195,
              38.22241670190293
            ],
            [
              -120.05419696943378,
              38.222424599934655
            ],
            [
              -120.05390193385087,
              38.2224395471846
            ],
            [
              -120.05388685590121,
              38.22268800046456
            ],
            [
              -120.0538797640001,
              38.22274822497885
            ],
            [
              -120.0538658706424,
              38.22280770746998
            ],
            [
              -120.05384528723646,
              38.222865970888655
            ],
            [
              -120.05381817884597,
              38.22292254796146
            ],
            [
              -120.05378476286651,
              38.22297698493852
            ],
            [
              -120.05361777483094,
              38.223220568317025
            ],
            [
              -120.05364776904172,
              38.22346217399537
            ],
            [
              -120.05365184160125,
              38.22353003909077
            ],
            [
              -120.05364725044434,
              38.2235978835824
            ],
            [
              -120.05363404200727,
              38.22366502091715
            ],
            [
              -120.05361234992999,
              38.22373077169623
            ],
            [
              -120.05358239370466,
              38.22379447055035
            ],
            [
              -120.05354447645529,
              38.22385547287322
            ],
            [
              -120.05349898187103,
              38.223913161344896
            ],
            [
              -120.05344637032394,
              38.22396695217908
            ],
            [
              -120.05338717421076,
              38.224016301031014
            ],
            [
              -120.05332199256539,
              38.22406070850646
            ],
            [
              -120.05325148499702,
              38.224099725215574
            ],
            [
              -120.05317636501512,
              38.22413295632099
            ],
            [
              -120.05309739280862,
              38.224160065533624
            ],
            [
              -120.05301536755272,
              38.224180778516036
            ],
            [
              -120.0528071657696,
              38.224224378831806
            ],
            [
              -120.0527308903874,
              38.22423744784845
            ],
            [
              -120.05265342317331,
              38.22424498255069
            ],
            [
              -120.0525754080218,
              38.22424692031203
            ],
            [
              -120.05249749338185,
              38.22424324502686
            ],
            [
              -120.05242872816095,
              38.224234995162675
            ],
            [
              -120.05242528332529,
              38.22423794431941
            ],
            [
              -120.0523641534761,
              38.22428113207462
            ],
            [
              -120.05229806295762,
              38.224319504590035
            ],
            [
              -120.05222761895202,
              38.22435270932902
            ],
            [
              -120.05215346864071,
              38.2243804412322
            ],
            [
              -120.05207629325814,
              38.22440244552023
            ],
            [
              -120.0514932884246,
              38.22454414657125
            ],
            [
              -120.05141332328664,
              38.22456029744071
            ],
            [
              -120.05134103495973,
              38.224572000938025
            ],
            [
              -120.05132087580606,
              38.224602617611936
            ],
            [
              -120.0512803732858,
              38.22465763039106
            ],
            [
              -120.05123348878014,
              38.224709392833965
            ],
            [
              -120.05118063827516,
              38.22475744566107
            ],
            [
              -120.05112229069513,
              38.22480136250693
            ],
            [
              -120.05105896374188,
              38.22484075370337
            ],
            [
              -120.05099121930124,
              38.224875269737275
            ],
            [
              -120.05091965845763,
              38.22490460435194
            ],
            [
              -120.05084491616022,
              38.22492849726465
            ],
            [
              -120.05063621835514,
              38.22498634384406
            ],
            [
              -120.05051380973083,
              38.2251266133105
            ],
            [
              -120.0503682947114,
              38.22540789405429
            ],
            [
              -120.05032645882507,
              38.22547721356985
            ],
            [
              -120.05027492019434,
              38.225542339721756
            ],
            [
              -120.05021434478871,
              38.22560243093587
            ],
            [
              -120.04988066671768,
              38.225897341585366
            ],
            [
              -120.04974251673056,
              38.226199586767216
            ],
            [
              -120.04971001364004,
              38.22626102369816
            ],
            [
              -120.04967000087402,
              38.22631963792769
            ],
            [
              -120.04962286718265,
              38.22637485995564
            ],
            [
              -120.0495690705066,
              38.22642615323956
            ],
            [
              -120.049509133528,
              38.226473019408104
            ],
            [
              -120.04944363859231,
              38.22651500310361
            ],
            [
              -120.04893482103479,
              38.226809547155085
            ],
            [
              -120.04848074342823,
              38.227103317883184
            ],
            [
              -120.04841370398918,
              38.22714253899384
            ],
            [
              -120.04834214179579,
              38.22717642455226
            ],
            [
              -120.04826673693542,
              38.22720465252708
            ],
            [
              -120.04818820601695,
              38.22722695465369
            ],
            [
              -120.04810729535986,
              38.227243118983786
            ],
            [
              -120.04810024894971,
              38.227243962022854
            ],
            [
              -120.04811351932588,
              38.227267926052534
            ],
            [
              -120.04813926013168,
              38.227330311185106
            ],
            [
              -120.04815720626735,
              38.227394372074706
            ],
            [
              -120.04816718837264,
              38.22745950424413
            ],
            [
              -120.04816911223483,
              38.22752509310593
            ],
            [
              -120.04816295967856,
              38.22759051976165
            ],
            [
              -120.04814878873816,
              38.22765516684178
            ],
            [
              -120.04812673311089,
              38.22771842433136
            ],
            [
              -120.04809700089605,
              38.22777969532616
            ],
            [
              -120.04805987263204,
              38.227838401665444
            ],
            [
              -120.04784433686055,
              38.228141398646
            ],
            [
              -120.04769564068937,
              38.22854556744143
            ],
            [
              -120.04753296066497,
              38.22905697713107
            ],
            [
              -120.04750846789462,
              38.22912054580872
            ],
            [
              -120.04747617547126,
              38.22918190860766
            ],
            [
              -120.04743639588257,
              38.22924047169617
            ],
            [
              -120.0473895140752,
              38.22929566833511
            ],
            [
              -120.0473359837299,
              38.229346964362755
            ],
            [
              -120.04727632287154,
              38.22939386336437
            ],
            [
              -120.04721110885606,
              38.2294359114765
            ],
            [
              -120.04714097278328,
              38.22947270177939
            ],
            [
              -120.04706659338926,
              38.22950387823532
            ],
            [
              -120.04698869047768,
              38.22952913913423
            ],
            [
              -120.04690801795351,
              38.2295482400139
            ],
            [
              -120.0468253565267,
              38.22956099602566
            ],
            [
              -120.04674150615617,
              38.22956728372362
            ],
            [
              -120.04665727830766,
              38.22956704225921
            ],
            [
              -120.04657348810005,
              38.229560273970094
            ],
            [
              -120.04649094641631,
              38.2295470443576
            ],
            [
              -120.04641045205558,
              38.22952748145264
            ],
            [
              -120.04633278400216,
              38.2295017745766
            ],
            [
              -120.04625869388643,
              38.229470172508975
            ],
            [
              -120.04618889871033,
              38.229432981079654
            ],
            [
              -120.04612407390862,
              38.22939056020893
            ],
            [
              -120.04577707375223,
              38.22913975849917
            ],
            [
              -120.04572184101637,
              38.22909600985706
            ],
            [
              -120.04544079970833,
              38.228852049015124
            ],
            [
              -120.04523830466822,
              38.22884818713571
            ],
            [
              -120.04515532709324,
              38.22884341506955
            ],
            [
              -120.04507332844219,
              38.22883231281149
            ],
            [
              -120.04499308297585,
              38.228814985194
            ],
            [
              -120.04491534839919,
              38.228791595831474
            ],
            [
              -120.04484085870642,
              38.22876236557527
            ],
            [
              -120.04477031724997,
              38.228727570428106
            ],
            [
              -120.04470439009881,
              38.22868753893773
            ],
            [
              -120.04464369974913,
              38.22864264909446
            ],
            [
              -120.04458881924643,
              38.228593324761896
            ],
            [
              -120.0445402667747,
              38.228540031674264
            ],
            [
              -120.04449850076399,
              38.22848327303875
            ],
            [
              -120.04446391556195,
              38.22842358478379
            ],
            [
              -120.04443683771098,
              38.22836153049858
            ],
            [
              -120.04413144654511,
              38.227532828727014
            ],
            [
              -120.04411259517337,
              38.22747092320614
            ],
            [
              -120.04410121724636,
              38.227407892500786
            ],
            [
              -120.04409741385223,
              38.22734429672129
            ],
            [
              -120.04409742127743,
              38.22671189702336
            ],
            [
              -120.04410113122681,
              38.226649097718976
            ],
            [
              -120.04411222747804,
              38.226586842598024
            ],
            [
              -120.04413061386808,
              38.22652567107526
            ],
            [
              -120.04415613106906,
              38.22646611317519
            ],
            [
              -120.04418855796929,
              38.22640868493986
            ],
            [
              -120.04422761358964,
              38.22635388395757
            ],
            [
              -120.04427295951852,
              38.226302185051715
            ],
            [
              -120.04436112703767,
              38.22621104296233
            ],
            [
              -120.04436112768065,
              38.22615579694011
            ],
            [
              -120.04436525116003,
              38.22608959761743
            ],
            [
              -120.04437758033438,
              38.22602403588958
            ],
            [
              -120.04439799644554,
              38.22595974315042
            ],
            [
              -120.04442630285536,
              38.22589733857135
            ],
            [
              -120.04446222694015,
              38.22583742313827
            ],
            [
              -120.04450542271692,
              38.22578057386414
            ],
            [
              -120.04455547417582,
              38.22572733823221
            ],
            [
              -120.04461189928698,
              38.22567822892376
            ],
            [
              -120.04467415464289,
              38.225633718881056
            ],
            [
              -120.04474164069181,
              38.22559423675296
            ],
            [
              -120.04481370751168,
              38.22556016276709
            ],
            [
              -120.04488966106894,
              38.225531825068344
            ],
            [
              -120.04496876990197,
              38.22550949655901
            ],
            [
              -120.04505027216501,
              38.22549339227068
            ],
            [
              -120.04513338296444,
              38.22548366729366
            ],
            [
              -120.04521730191696,
              38.225480415283435
            ],
            [
              -120.04535964843872,
              38.22548041542158
            ],
            [
              -120.045430677893,
              38.22543258120505
            ],
            [
              -120.0459122126009,
              38.22490879546146
            ],
            [
              -120.04595988339467,
              38.224861540536466
            ],
            [
              -120.04643380566408,
              38.22443260259906
            ],
            [
              -120.0464524612088,
              38.22433364990737
            ],
            [
              -120.04646926374927,
              38.224267458802935
            ],
            [
              -120.04649435840356,
              38.22420292150023
            ],
            [
              -120.04652749445371,
              38.224140682729754
            ],
            [
              -120.04656834085041,
              38.22408136425807
            ],
            [
              -120.04661648952074,
              38.2240255586765
            ],
            [
              -120.04667145944532,
              38.223973823481536
            ],
            [
              -120.04670717984169,
              38.22394632367501
            ],
            [
              -120.04672123343019,
              38.22361445392962
            ],
            [
              -120.04672350742781,
              38.2235829010835
            ],
            [
              -120.04680681685612,
              38.22276510207007
            ],
            [
              -120.04681768235834,
              38.22269922609324
            ],
            [
              -120.04683669899956,
              38.22263451086424
            ],
            [
              -120.04686368277802,
              38.2225715824849
            ],
            [
              -120.04689837261398,
              38.22251104976828
            ],
            [
              -120.04694043287641,
              38.22245349834872
            ],
            [
              -120.04698945663067,
              38.22239948501628
            ],
            [
              -120.0470449695759,
              38.22234953233023
            ],
            [
              -120.04710643463392,
              38.222304123563674
            ],
            [
              -120.04717325714562,
              38.22226369802836
            ],
            [
              -120.04724479062395,
              38.22222864682475
            ],
            [
              -120.04732034300824,
              38.222199309058574
            ],
            [
              -120.04739918335942,
              38.22217596856026
            ],
            [
              -120.04817647698049,
              38.22197967002275
            ],
            [
              -120.04820606755307,
              38.22197265885967
            ],
            [
              -120.0483187013247,
              38.22194771026565
            ],
            [
              -120.04834134626256,
              38.22189687380235
            ],
            [
              -120.04857896728974,
              38.22079748201961
            ],
            [
              -120.04859710281907,
              38.220732865215716
            ],
            [
              -120.04862316777597,
              38.220669958922834
            ],
            [
              -120.04865691186158,
              38.2206093671755
            ],
            [
              -120.04869801104333,
              38.22055167178231
            ],
            [
              -120.04874607066704,
              38.22049742673954
            ],
            [
              -120.04880062924677,
              38.22044715291182
            ],
            [
              -120.04886116289647,
              38.22040133303103
            ],
            [
              -120.04892709036046,
              38.22036040706134
            ],
            [
              -120.04899777859477,
              38.220324767974915
            ],
            [
              -120.0490725488454,
              38.22029475797878
            ],
            [
              -120.04915068316565,
              38.220270665229165
            ],
            [
              -120.0492314313093,
              38.22025272106484
            ],
            [
              -120.04931401793411,
              38.22024109778597
            ],
            [
              -120.04939765004599,
              38.22023590699974
            ],
            [
              -120.04948152461274,
              38.22023719854879
            ],
            [
              -120.04951697491747,
              38.220239118155824
            ],
            [
              -120.04960686463464,
              38.220173918249465
            ],
            [
              -120.04966097361239,
              38.220137814539704
            ],
            [
              -120.04971868220164,
              38.22010536503524
            ],
            [
              -120.04977959497141,
              38.22007679208469
            ],
            [
              -120.05044198136427,
              38.21979467247729
            ],
            [
              -120.05044204542314,
              38.21979215973632
            ],
            [
              -120.05048976146595,
              38.21914538873318
            ],
            [
              -120.05027635489083,
              38.21849327037243
            ],
            [
              -120.05014071233036,
              38.21812024154187
            ],
            [
              -120.05012038910192,
              38.2180506632544
            ],
            [
              -120.05010949019888,
              38.21797978109342
            ],
            [
              -120.05010813740715,
              38.21790838728669
            ],
            [
              -120.0501295621656,
              38.21746304701026
            ],
            [
              -120.05002070287061,
              38.21722794141747
            ],
            [
              -120.04999344771333,
              38.21715731894341
            ],
            [
              -120.04997612532308,
              38.217084771508965
            ],
            [
              -120.04996894263246,
              38.21701116588886
            ],
            [
              -120.04997198542694,
              38.216937381498056
            ],
            [
              -120.04999978831133,
              38.2166864818164
            ],
            [
              -120.0500101738278,
              38.216625226112505
            ],
            [
              -120.05002761306412,
              38.21656497582674
            ],
            [
              -120.05005195998304,
              38.21650623543995
            ],
            [
              -120.05008301071011,
              38.21644949678932
            ],
            [
              -120.0501205052412,
              38.216395234950355
            ],
            [
              -120.05016412962,
              38.21634390425913
            ],
            [
              -120.05054426345639,
              38.215938072772765
            ],
            [
              -120.05055197120214,
              38.21567206741635
            ],
            [
              -120.05055824990613,
              38.21560441751799
            ],
            [
              -120.0505730977562,
              38.21553760567818
            ],
            [
              -120.05059636496395,
              38.21547230580571
            ],
            [
              -120.0506278168196,
              38.21540917655697
            ],
            [
              -120.05066713606004,
              38.215348854692465
            ],
            [
              -120.05071392606985,
              38.21529194865429
            ],
            [
              -120.05076771488227,
              38.21523903242927
            ],
            [
              -120.05082795994014,
              38.215190639759655
            ],
            [
              -120.0508940535687,
              38.21514725875981
            ],
            [
              -120.05096532910505,
              38.215109326993066
            ],
            [
              -120.05104106762234,
              38.21507722705857
            ],
            [
              -120.05133246561363,
              38.214968227883794
            ],
            [
              -120.05135274414559,
              38.21496089629331
            ],
            [
              -120.05154733430288,
              38.214892949159285
            ],
            [
              -120.05155280781203,
              38.21486427736222
            ],
            [
              -120.05134868709365,
              38.214623646503746
            ],
            [
              -120.05131124740278,
              38.21457522813053
            ],
            [
              -120.05127908887182,
              38.21452450207373
            ],
            [
              -120.05125243828161,
              38.21447182606989
            ],
            [
              -120.05115534048555,
              38.21425372549395
            ],
            [
              -120.05113205403728,
              38.21419221259453
            ],
            [
              -120.05111627536456,
              38.21412923319943
            ],
            [
              -120.05110814701108,
              38.21406535633984
            ],
            [
              -120.05110774239766,
              38.21400115915424
            ],
            [
              -120.0511150651597,
              38.21393722167382
            ],
            [
              -120.05113004911512,
              38.21387412158173
            ],
            [
              -120.05127661359161,
              38.21338629803695
            ],
            [
              -120.0512246717376,
              38.213375884015186
            ],
            [
              -120.05114389550126,
              38.213356293204924
            ],
            [
              -120.0510659611966,
              38.21333051397451
            ],
            [
              -120.0509916283533,
              38.2132987975643
            ],
            [
              -120.05092162139906,
              38.21326145307687
            ],
            [
              -120.05085662259918,
              38.21321884446426
            ],
            [
              -120.05079726540735,
              38.21317138698077
            ],
            [
              -120.05074412829192,
              38.21311954313566
            ],
            [
              -120.0506977290987,
              38.21306381818547
            ],
            [
              -120.05065852000432,
              38.213004755209575
            ],
            [
              -120.05062688311001,
              38.21294292981739
            ],
            [
              -120.05060312671819,
              38.21287894453831
            ],
            [
              -120.0505874823288,
              38.21281342294962
            ],
            [
              -120.05058010238372,
              38.21274700359917
            ],
            [
              -120.05058105878214,
              38.21268033378229
            ],
            [
              -120.05059034218064,
              38.21261406323346
            ],
            [
              -120.05060786208524,
              38.21254883779438
            ],
            [
              -120.05063344773406,
              38.212485293119926
            ],
            [
              -120.05066684976238,
              38.21242404848354
            ],
            [
              -120.05070774263345,
              38.21236570074225
            ],
            [
              -120.05075572781166,
              38.21231081852027
            ],
            [
              -120.05081033764691,
              38.2122599366677
            ],
            [
              -120.05087103993245,
              38.21221355104849
            ],
            [
              -120.05093724309155,
              38.212172113708256
            ],
            [
              -120.05100830194279,
              38.21213602846922
            ],
            [
              -120.05108352398732,
              38.21210564699504
            ],
            [
              -120.05181911875489,
              38.21184384897947
            ],
            [
              -120.05188614449457,
              38.21182263111123
            ],
            [
              -120.05195519847092,
              38.211805946376316
            ],
            [
              -120.05202578917645,
              38.21179391353245
            ],
            [
              -120.05262918536154,
              38.2117119059312
            ],
            [
              -120.05283720909443,
              38.211632729725984
            ],
            [
              -120.05263021975672,
              38.21059012222481
            ],
            [
              -120.05262121963875,
              38.21052298255121
            ],
            [
              -120.05262076007229,
              38.210455469356525
            ],
            [
              -120.05262884562597,
              38.21038825727741
            ],
            [
              -120.05264539548051,
              38.210322017939745
            ],
            [
              -120.05267024423715,
              38.210257413247454
            ],
            [
              -120.05270314357132,
              38.210195088768394
            ],
            [
              -120.05274376471483,
              38.21013566728371
            ],
            [
              -120.05279170174177,
              38.210079742564844
            ],
            [
              -120.05284647562529,
              38.2100278734405
            ],
            [
              -120.05290753902453,
              38.209980578212864
            ],
            [
              -120.05297428175442,
              38.209938329478604
            ],
            [
              -120.05304603688273,
              38.209901549406894
            ],
            [
              -120.05312208739439,
              38.20987060552101
            ],
            [
              -120.05320167335591,
              38.20984580702631
            ],
            [
              -120.05328399950861,
              38.209827401720496
            ],
            [
              -120.05336824321462,
              38.2098155735178
            ],
            [
              -120.05345356267644,
              38.20981044061137
            ],
            [
              -120.05353910534782,
              38.209812054292215
            ],
            [
              -120.05362401645206,
              38.20982039843677
            ],
            [
              -120.0538323071949,
              38.20984927123622
            ],
            [
              -120.05469273384173,
              38.20992317664114
            ],
            [
              -120.05478353991566,
              38.209934901092886
            ],
            [
              -120.05487222639282,
              38.20995424834492
            ],
            [
              -120.05495776851949,
              38.20998099484537
            ],
            [
              -120.05503917787111,
              38.210014831545394
            ],
            [
              -120.0555149343358,
              38.21023913623964
            ],
            [
              -120.05552235247147,
              38.21019826334838
            ],
            [
              -120.05553960916508,
              38.210129118333896
            ],
            [
              -120.05556590353328,
              38.21006176851851
            ],
            [
              -120.05560094927061,
              38.20999694717688
            ],
            [
              -120.05564436479364,
              38.20993536005301
            ],
            [
              -120.0556956773962,
              38.20987767767665
            ],
            [
              -120.05574030505885,
              38.209837236040514
            ],
            [
              -120.05574282132702,
              38.209831229433995
            ],
            [
              -120.05577660945697,
              38.20977101058983
            ],
            [
              -120.05581784605099,
              38.209706245602035
            ],
            [
              -120.05588183771687,
              38.20955532418495
            ],
            [
              -120.05591225385663,
              38.20949377304067
            ],
            [
              -120.05595014588647,
              38.20943486104036
            ],
            [
              -120.0559951512405,
              38.20937915185093
            ],
            [
              -120.05604429890919,
              38.209329732904976
            ],
            [
              -120.05599682330919,
              38.20919572090354
            ],
            [
              -120.0559804129119,
              38.20914057390947
            ],
            [
              -120.05597872068347,
              38.20913153892023
            ],
            [
              -120.05594581509061,
              38.209088729937726
            ],
            [
              -120.05590964801824,
              38.20902927456751
            ],
            [
              -120.05588100252206,
              38.20896731944969
            ],
            [
              -120.0558601517119,
              38.208903455315095
            ],
            [
              -120.05584729437503,
              38.208838291095105
            ],
            [
              -120.05584255308142,
              38.20877244811546
            ],
            [
              -120.05584286524763,
              38.20876643342885
            ],
            [
              -120.05581798713976,
              38.208718664613734
            ],
            [
              -120.05579362969618,
              38.208654380414686
            ],
            [
              -120.05577747620863,
              38.20858850652058
            ],
            [
              -120.0557696860759,
              38.20852169305132
            ],
            [
              -120.0557703361567,
              38.20845459939788
            ],
            [
              -120.05577942001213,
              38.208387887714544
            ],
            [
              -120.0557968479701,
              38.208322216384154
            ],
            [
              -120.05582244801121,
              38.20825823352051
            ],
            [
              -120.0558559674673,
              38.20819657057231
            ],
            [
              -120.0558970755156,
              38.208137836091396
            ],
            [
              -120.05594536644452,
              38.20808260972731
            ],
            [
              -120.0560003636579,
              38.20803143650695
            ],
            [
              -120.05606152437898,
              38.207984821455916
            ],
            [
              -120.05612824500719,
              38.20794322461477
            ],
            [
              -120.05619986707508,
              38.2079070564992
            ],
            [
              -120.05626759787005,
              38.20787991435228
            ],
            [
              -120.05627742654757,
              38.207817881236686
            ],
            [
              -120.05629576792492,
              38.20775370954138
            ],
            [
              -120.05632193429389,
              38.20769125015143
            ],
            [
              -120.05635567740129,
              38.207631095603595
            ],
            [
              -120.05639667711753,
              38.20757381656789
            ],
            [
              -120.0564748776386,
              38.20747601706936
            ],
            [
              -120.05652383094187,
              38.20742105571322
            ],
            [
              -120.05657946164675,
              38.207370203378446
            ],
            [
              -120.05664121939252,
              38.20732396314168
            ],
            [
              -120.05670849320785,
              38.20728279245183
            ],
            [
              -120.05678061755508,
              38.20724709860489
            ],
            [
              -120.05685687891412,
              38.20721723471484
            ],
            [
              -120.05693652284099,
              38.2071934962206
            ],
            [
              -120.0570187614309,
              38.20717611796347
            ],
            [
              -120.05710278111245,
              38.207165271864085
            ],
            [
              -120.05718775069542,
              38.20716106522165
            ],
            [
              -120.05727282959292,
              38.20716353965258
            ],
            [
              -120.05735717613655,
              38.20717267067876
            ],
            [
              -120.05743995590205,
              38.20718836796968
            ],
            [
              -120.05752034996354,
              38.207210476235886
            ],
            [
              -120.05759756299433,
              38.2072387767651
            ],
            [
              -120.0576708311346,
              38.20727298958575
            ],
            [
              -120.05773942954752,
              38.2073127762364
            ],
            [
              -120.05780267959001,
              38.207357743113846
            ],
            [
              -120.05805449766646,
              38.20755553701258
            ],
            [
              -120.05832202824224,
              38.207688338178556
            ],
            [
              -120.05850210506078,
              38.20769921716898
            ],
            [
              -120.0585074201306,
              38.207696187419
            ],
            [
              -120.05857702154654,
              38.207663915606354
            ],
            [
              -120.05865016648231,
              38.2076369610859
            ],
            [
              -120.05872620432223,
              38.2076155636145
            ],
            [
              -120.05880445872053,
              38.20759991351988
            ],
            [
              -120.06009221813869,
              38.20739281371979
            ],
            [
              -120.06011137338065,
              38.207349959438126
            ],
            [
              -120.06014549665608,
              38.207284708509086
            ],
            [
              -120.06018806453164,
              38.207222624111665
            ],
            [
              -120.06023861201949,
              38.20716438439208
            ],
            [
              -120.06029658697466,
              38.207110625499844
            ],
            [
              -120.06036135612646,
              38.20706193463951
            ],
            [
              -120.06043221199604,
              38.20701884365698
            ],
            [
              -120.06050838062411,
              38.20698182323052
            ],
            [
              -120.061368975326,
              38.206611026011245
            ],
            [
              -120.0614447366214,
              38.2065821028342
            ],
            [
              -120.06152373148478,
              38.20655919027669
            ],
            [
              -120.06160519619885,
              38.20654250985603
            ],
            [
              -120.0616883431697,
              38.20653222283778
            ],
            [
              -120.06177236854076,
              38.20652842867669
            ],
            [
              -120.06185645996352,
              38.20653116405523
            ],
            [
              -120.06193980445074,
              38.2065404025289
            ],
            [
              -120.06199405331837,
              38.20655078398203
            ],
            [
              -120.06204335625372,
              38.20652293588475
            ],
            [
              -120.06229940929815,
              38.206321734370185
            ],
            [
              -120.06236296737045,
              38.206276552045814
            ],
            [
              -120.06243192374609,
              38.20623660144521
            ],
            [
              -120.06250558962338,
              38.206202281629096
            ],
            [
              -120.0625832291614,
              38.20617393541283
            ],
            [
              -120.0626640668298,
              38.20615184594225
            ],
            [
              -120.06274729515495,
              38.20613623386563
            ],
            [
              -120.06283208278515,
              38.20612725512977
            ],
            [
              -120.06291758279417,
              38.20612499942236
            ],
            [
              -120.06300294114028,
              38.20612948927612
            ],
            [
              -120.06353229712313,
              38.20617839453191
            ],
            [
              -120.06355631709911,
              38.206147327951314
            ],
            [
              -120.0636082498175,
              38.206093235532315
            ],
            [
              -120.06366679960699,
              38.20604352828851
            ],
            [
              -120.06373137536943,
              38.20599870803702
            ],
            [
              -120.06380132517529,
              38.205959227257864
            ],
            [
              -120.06387594284537,
              38.205925484526226
            ],
            [
              -120.06395447507968,
              38.205897820489085
            ],
            [
              -120.06403612906182,
              38.205876514426286
            ],
            [
              -120.0641200804625,
              38.205861781431416
            ],
            [
              -120.06420548176075,
              38.2058537702404
            ],
            [
              -120.0642914707993,
              38.2058525617301
            ],
            [
              -120.0643771794877,
              38.20585816810184
            ],
            [
              -120.06446174256524,
              38.2058705327582
            ],
            [
              -120.06502345773248,
              38.20597594189727
            ],
            [
              -120.06568251849028,
              38.2056208378484
            ],
            [
              -120.06573155179647,
              38.20559629993529
            ],
            [
              -120.06657824696669,
              38.205203702855115
            ],
            [
              -120.0666691201674,
              38.20516712952511
            ],
            [
              -120.06676486209855,
              38.20513934656494
            ],
            [
              -120.06744568684618,
              38.204977403339356
            ],
            [
              -120.06757728285542,
              38.20474599617581
            ],
            [
              -120.06761527585681,
              38.20468708692192
            ],
            [
              -120.06766038444384,
              38.204631390239314
            ],
            [
              -120.06771217656066,
              38.20457943957949
            ],
            [
              -120.06777015614111,
              38.2045317325144
            ],
            [
              -120.06783376786022,
              38.204488725970954
            ],
            [
              -120.06790240245297,
              38.204450831855056
            ],
            [
              -120.06797540254968,
              38.20441841310662
            ],
            [
              -120.06805206897192,
              38.20439178022371
            ],
            [
              -120.06813166742879,
              38.204371188288796
            ],
            [
              -120.0682134355492,
              38.20435683452593
            ],
            [
              -120.06829659018315,
              38.204348856411784
            ],
            [
              -120.06838033490202,
              38.204347330359084
            ],
            [
              -120.06846386762567,
              38.20435227098478
            ],
            [
              -120.06880523343372,
              38.20438578060559
            ],
            [
              -120.06884945312756,
              38.204372267815295
            ],
            [
              -120.06904597745148,
              38.204137573188625
            ],
            [
              -120.06909599255948,
              38.204083815926424
            ],
            [
              -120.06915248239365,
              38.204034212840234
            ],
            [
              -120.06921489619442,
              38.20398924753578
            ],
            [
              -120.06928262544997,
              38.203949358401964
            ],
            [
              -120.06935500982875,
              38.20391493433714
            ],
            [
              -120.06943134361734,
              38.20388631095779
            ],
            [
              -120.06951088260037,
              38.203863767326595
            ],
            [
              -120.06959285131592,
              38.203847523232014
            ],
            [
              -120.06994388422363,
              38.203792333947575
            ],
            [
              -120.07021296651722,
              38.20356167597968
            ],
            [
              -120.07027986408038,
              38.20351026584571
            ],
            [
              -120.07035346083502,
              38.20346491223716
            ],
            [
              -120.07043288078184,
              38.20342615497811
            ],
            [
              -120.07101587718991,
              38.203175256860064
            ],
            [
              -120.07109274443002,
              38.20314600012189
            ],
            [
              -120.07117292175153,
              38.203122929089204
            ],
            [
              -120.07125561207013,
              38.20310627312335
            ],
            [
              -120.0713399933204,
              38.20309619781025
            ],
            [
              -120.07142522662762,
              38.20309280331434
            ],
            [
              -120.07151046464688,
              38.203096123382885
            ],
            [
              -120.0715846511731,
              38.2031019493967
            ],
            [
              -120.07159162590244,
              38.20309735174326
            ],
            [
              -120.07166475152299,
              38.20305847535957
            ],
            [
              -120.07174255766299,
              38.203025741708785
            ],
            [
              -120.07182421862024,
              38.202999498168964
            ],
            [
              -120.07190886778714,
              38.20298002324342
            ],
            [
              -120.07199560684684,
              38.20296752360526
            ],
            [
              -120.07217920375736,
              38.20294871531757
            ],
            [
              -120.07239936339191,
              38.202865663635706
            ],
            [
              -120.07318710117201,
              38.202561600271004
            ],
            [
              -120.07326144816263,
              38.20253626764675
            ],
            [
              -120.07333849638395,
              38.202516592957686
            ],
            [
              -120.07341755611354,
              38.202502752328606
            ],
            [
              -120.07349791962355,
              38.20249486965893
            ],
            [
              -120.07357886751576,
              38.20249301551353
            ],
            [
              -120.07365967516097,
              38.20249720649116
            ],
            [
              -120.07373961918503,
              38.20250740507583
            ],
            [
              -120.07381798394402,
              38.202523519972544
            ],
            [
              -120.07389406792991,
              38.202545406924536
            ],
            [
              -120.07396719005003,
              38.20257287000441
            ],
            [
              -120.07403669572354,
              38.20260566336801
            ],
            [
              -120.07428649477781,
              38.20273656232644
            ],
            [
              -120.07434815355415,
              38.20277209838314
            ],
            [
              -120.07440555371839,
              38.202811829051534
            ],
            [
              -120.07445823848634,
              38.20285543816505
            ],
            [
              -120.07450578859557,
              38.20290257869268
            ],
            [
              -120.0747111897572,
              38.203125977532316
            ],
            [
              -120.07481121393357,
              38.20323481303152
            ],
            [
              -120.07497955848277,
              38.20335203457064
            ],
            [
              -120.07518220502335,
              38.2034930804104
            ],
            [
              -120.07523379955974,
              38.20352015772429
            ],
            [
              -120.07580001648239,
              38.20376114041754
            ],
            [
              -120.07588759279996,
              38.203791720780046
            ],
            [
              -120.07588872414637,
              38.203790918620754
            ],
            [
              -120.07595498070482,
              38.20374845565319
            ],
            [
              -120.07602626751031,
              38.20371141111198
            ],
            [
              -120.07610187562814,
              38.20368015339598
            ],
            [
              -120.0761246641277,
              38.20367291195972
            ],
            [
              -120.0765535928151,
              38.203338617329415
            ],
            [
              -120.077259237426,
              38.20263545658314
            ],
            [
              -120.07848316823994,
              38.20139430764811
            ],
            [
              -120.07851982092845,
              38.2013275858767
            ],
            [
              -120.07856890473346,
              38.20119260943761
            ],
            [
              -120.07859765488806,
              38.20112661819991
            ],
            [
              -120.07863488030233,
              38.2010633200817
            ],
            [
              -120.07868018357972,
              38.201003390781004
            ],
            [
              -120.07873308109724,
              38.200947470032716
            ],
            [
              -120.07879300816853,
              38.20089615477993
            ],
            [
              -120.07885932507226,
              38.20084999280195
            ],
            [
              -120.07893132388105,
              38.200809476867185
            ],
            [
              -120.07903251188687,
              38.200758544480635
            ],
            [
              -120.07919080826497,
              38.20061198679462
            ],
            [
              -120.0792477962575,
              38.20056414479425
            ],
            [
              -120.07931040182294,
              38.20052089551494
            ],
            [
              -120.07937803328274,
              38.2004826476955
            ],
            [
              -120.07945005146286,
              38.20044976280669
            ],
            [
              -120.0795257757343,
              38.20042255163529
            ],
            [
              -120.07960449044532,
              38.200401271347104
            ],
            [
              -120.07968545168436,
              38.20038612305673
            ],
            [
              -120.0797678943101,
              38.200377249926966
            ],
            [
              -120.07985103918205,
              38.20037473581597
            ],
            [
              -120.07993410052327,
              38.20037860448473
            ],
            [
              -120.08001629334602,
              38.20038881937247
            ],
            [
              -120.08009684086976,
              38.20040528394218
            ],
            [
              -120.08017498186172,
              38.20042784259279
            ],
            [
              -120.0802499778306,
              38.200456282129565
            ],
            [
              -120.08032112000537,
              38.200490333778845
            ],
            [
              -120.08048741939922,
              38.2005789330788
            ],
            [
              -120.08055387233411,
              38.20061816839397
            ],
            [
              -120.08061519727245,
              38.20066229822144
            ],
            [
              -120.08067081758007,
              38.200710907619246
            ],
            [
              -120.08072021025885,
              38.20076353952411
            ],
            [
              -120.08076291086472,
              38.20081969904884
            ],
            [
              -120.0807985178751,
              38.20087885813544
            ],
            [
              -120.08082669646463,
              38.200940460520144
            ],
            [
              -120.08084718165425,
              38.20100392696374
            ],
            [
              -120.08085978080335,
              38.201068660697906
            ],
            [
              -120.08086437542191,
              38.201134053036476
            ],
            [
              -120.08086092228541,
              38.20119948909887
            ],
            [
              -120.0808494538421,
              38.20126435359171
            ],
            [
              -120.08083007790871,
              38.201328036594504
            ],
            [
              -120.08080297665735,
              38.20138993929476
            ],
            [
              -120.08076840490341,
              38.20144947961884
            ],
            [
              -120.08042510859585,
              38.20197218198048
            ],
            [
              -120.08038319844613,
              38.20202903397538
            ],
            [
              -120.08033447932003,
              38.20208239964885
            ],
            [
              -120.08027941322145,
              38.20213177291896
            ],
            [
              -120.0802185223476,
              38.20217668556409
            ],
            [
              -120.08020454201879,
              38.20218514630843
            ]
          ]
        ]
      }
    }
  ]
}