{
  "type": "FeatureCollection",
  "features": [
    {
      "type": "Feature",
      "properties": {
        "reservoir_name": "CHERRY VALLEY DAM",
        "cdec_station_id": "CHV",
        "source": "osm_tight_polygon_75m_buffer"
      },
      "geometry": {
        "type": "Polygon",
        "coordinates": [
          [
            [
              -119.91735327832674,
              37.97657457669229
            ],
            [
              -119.91749999675972,
              37.9765745763704
            ],
            [
              -119.91759047371511,
              37.97657838381582
            ],
            [
              -119.91767993059128,
              37.97658976373322
            ],
            [
              -119.91776735877977,
              37.97660858781523
            ],
            [
              -119.91785177254373,
              37.976634643822926
            ],
            [
              -119.91793222013087,
              37.976667637978764
            ],
            [
              -119.91850882401317,
              37.976935772011025
            ],
            [
              -119.91917323137453,
              37.97708121038384
            ],
            [
              -119.91925128534243,
              37.977101545582734
            ],
            [
              -119.91932650627626,
              37.97712772948652
            ],
            [
              -119.91939819658427,
              37.97715951926846
            ],
            [
              -119.91946569141494,
              37.97719662011336
            ],
            [
              -119.91952836482258,
              37.97723868795153
            ],
            [
              -119.91958563557208,
              37.97728533264943
            ],
            [
              -119.91963697252902,
              37.97733612162753
            ],
            [
              -119.9196818995857,
              37.97739058387178
            ],
            [
              -119.91972000007652,
              37.97744821430157
            ],
            [
              -119.91975092064257,
              37.977508478453544
            ],
            [
              -119.91977437450913,
              37.977570817438064
            ],
            [
              -119.91979014414572,
              37.97763465312217
            ],
            [
              -119.91979808328416,
              37.977699393491015
            ],
            [
              -119.91979811827574,
              37.977764438138166
            ],
            [
              -119.91979024877506,
              37.97782918383373
            ],
            [
              -119.91977454774396,
              37.9778930301187
            ],
            [
              -119.91975116077565,
              37.977955384873816
            ],
            [
              -119.91972030474516,
              37.9780156698109
            ],
            [
              -119.91968226579878,
              37.97807332583616
            ],
            [
              -119.91963739670075,
              37.97812781823543
            ],
            [
              -119.91958611356233,
              37.978178641633455
            ],
            [
              -119.9195288919829,
              37.97822532468102
            ],
            [
              -119.91946626263962,
              37.97826743442658
            ],
            [
              -119.91939880636576,
              37.97830458033184
            ],
            [
              -119.9183266679562,
              37.97883622132266
            ],
            [
              -119.91805861421142,
              37.97946572943463
            ],
            [
              -119.91802851493583,
              37.979526531177505
            ],
            [
              -119.91799113813448,
              37.97958474796316
            ],
            [
              -119.91794683318713,
              37.979639835583114
            ],
            [
              -119.9178960142402,
              37.97969127907898
            ],
            [
              -119.91783915633589,
              37.97973859755635
            ],
            [
              -119.91777679097169,
              37.97978134868059
            ],
            [
              -119.91770950113218,
              37.979819132811876
            ],
            [
              -119.91763791583926,
              37.979851596741405
            ],
            [
              -119.91756270427184,
              37.979878436993374
            ],
            [
              -119.91748456951026,
              37.97989940266213
            ],
            [
              -119.91740424196335,
              37.97991429775781
            ],
            [
              -119.91732247254014,
              37.97992298303873
            ],
            [
              -119.91724002562975,
              37.97992537731313
            ],
            [
              -119.91715767195531,
              37.97992145819815
            ],
            [
              -119.91707618136842,
              37.979911262329274
            ],
            [
              -119.91699631565206,
              37.97989488501781
            ],
            [
              -119.91691882139868,
              37.97987247935976
            ],
            [
              -119.91684823413351,
              37.97984895054915
            ],
            [
              -119.91751958136226,
              37.980958192085076
            ],
            [
              -119.91755238621968,
              37.9810201195746
            ],
            [
              -119.91757726005844,
              37.98108431930793
            ],
            [
              -119.91759395699751,
              37.98115015671577
            ],
            [
              -119.91760231197702,
              37.98121698103991
            ],
            [
              -119.91760224239088,
              37.981284131765435
            ],
            [
              -119.91759374890391,
              37.98135094514937
            ],
            [
              -119.9175769154462,
              37.981416760781435
            ],
            [
              -119.9175519083846,
              37.981480928111644
            ],
            [
              -119.91751897487894,
              37.981542812880896
            ],
            [
              -119.91747844043992,
              37.981601803390284
            ],
            [
              -119.91720579784692,
              37.98195547624878
            ],
            [
              -119.91733821358201,
              37.982512128564515
            ],
            [
              -119.91734962396974,
              37.98257753957776
            ],
            [
              -119.91735291015193,
              37.982643519875985
            ],
            [
              -119.91734804069873,
              37.98270943884421
            ],
            [
              -119.91733506212877,
              37.98277466645195
            ],
            [
              -119.91731409846555,
              37.98283857927484
            ],
            [
              -119.91728535005271,
              37.98290056645318
            ],
            [
              -119.91724909164016,
              37.982960035530354
            ],
            [
              -119.91699949444902,
              37.98332293699992
            ],
            [
              -119.9169562270841,
              37.98337913880164
            ],
            [
              -119.91690625426571,
              37.983431740832934
            ],
            [
              -119.91685005045926,
              37.98348024365
            ],
            [
              -119.91678814929516,
              37.983524186729035
            ],
            [
              -119.91672113850217,
              37.983563152839054
            ],
            [
              -119.91664965432717,
              37.983596772003565
            ],
            [
              -119.91657437549411,
              37.983624725013776
            ],
            [
              -119.91649601675921,
              37.983646746459655
            ],
            [
              -119.91641532212444,
              37.98366262725005
            ],
            [
              -119.91633305777263,
              37.983672216598265
            ],
            [
              -119.9162500047923,
              37.9836754234539
            ],
            [
              -119.91566288759604,
              37.983675424705766
            ],
            [
              -119.91516913728526,
              37.984169177597614
            ],
            [
              -119.91502127248471,
              37.98431704408291
            ],
            [
              -119.91431811644567,
              37.98619218029497
            ],
            [
              -119.91429027444478,
              37.98625492096432
            ],
            [
              -119.91425477215928,
              37.98631519067904
            ],
            [
              -119.91387942721312,
              37.986878218587435
            ],
            [
              -119.9143471774312,
              37.989918358244786
            ],
            [
              -119.91435312789541,
              37.989981870310054
            ],
            [
              -119.91435149337264,
              37.9900455435895
            ],
            [
              -119.91434228837547,
              37.99010881197661
            ],
            [
              -119.9138900558508,
              37.99230140201783
            ],
            [
              -119.91408833323237,
              37.993123346931526
            ],
            [
              -119.91409926647488,
              37.99318302395862
            ],
            [
              -119.91410343048292,
              37.993243234855
            ],
            [
              -119.91410079204987,
              37.9933034996984
            ],
            [
              -119.91409137218926,
              37.99336333813538
            ],
            [
              -119.91407524596767,
              37.99342227321014
            ],
            [
              -119.91368411716518,
              37.99459570454322
            ],
            [
              -119.91391927409603,
              37.99483085832865
            ],
            [
              -119.91397231285404,
              37.99489019816354
            ],
            [
              -119.91401698704911,
              37.99495370465564
            ],
            [
              -119.91405277932107,
              37.995020642383295
            ],
            [
              -119.91407927516103,
              37.99509023618828
            ],
            [
              -119.91409616771251,
              37.99516168015222
            ],
            [
              -119.91434618443913,
              37.99666167767996
            ],
            [
              -119.91435351383953,
              37.99674999701601
            ],
            [
              -119.91435351617396,
              37.996953405545376
            ],
            [
              -119.91682756031116,
              37.9987526933842
            ],
            [
              -119.91687539788259,
              37.99879034895424
            ],
            [
              -119.91691932717244,
              37.99883087705202
            ],
            [
              -119.91716932783778,
              37.999080875607795
            ],
            [
              -119.91721660103036,
              37.99913306708348
            ],
            [
              -119.91725739731157,
              37.99918857508729
            ],
            [
              -119.91729134793444,
              37.99924689791649
            ],
            [
              -119.91731814602343,
              37.999307508425716
            ],
            [
              -119.9173375493485,
              37.999369858791454
            ],
            [
              -119.917349382515,
              37.999433385463256
            ],
            [
              -119.9173535385497,
              37.999497514257286
            ],
            [
              -119.91734997986829,
              37.99956166554601
            ],
            [
              -119.91733873861581,
              37.99962525949709
            ],
            [
              -119.9173199163769,
              37.999687721314146
            ],
            [
              -119.91729368325818,
              37.99974848643218
            ],
            [
              -119.917019640802,
              38.000296586834295
            ],
            [
              -119.91729995197505,
              38.00048345876679
            ],
            [
              -119.91736043287689,
              38.000527908263685
            ],
            [
              -119.91741520526875,
              38.0005767726295
            ],
            [
              -119.91746375693107,
              38.00062959490491
            ],
            [
              -119.91750563381504,
              38.00068588111699
            ],
            [
              -119.9175404442889,
              38.000745104898456
            ],
            [
              -119.91756786280077,
              38.00080671240979
            ],
            [
              -119.91758763292353,
              38.000870127518425
            ],
            [
              -119.91759956975359,
              38.00093475718629
            ],
            [
              -119.91760356164065,
              38.00099999701568
            ],
            [
              -119.9176035674457,
              38.00149999677921
            ],
            [
              -119.91759867582076,
              38.0015722092422
            ],
            [
              -119.9175840552937,
              38.00164359396185
            ],
            [
              -119.91755987344068,
              38.00171333260984
            ],
            [
              -119.91752640744734,
              38.00178062572547
            ],
            [
              -119.91748404093241,
              38.00184470188055
            ],
            [
              -119.91674914367839,
              38.00282457872088
            ],
            [
              -119.91674999790484,
              38.0028245787194
            ],
            [
              -119.91683534713052,
              38.0028279634075
            ],
            [
              -119.9169198409406,
              38.002838083847024
            ],
            [
              -119.91700263247759,
              38.00285483860276
            ],
            [
              -119.91708289194433,
              38.002878059745605
            ],
            [
              -119.91715981492007,
              38.00290751453557
            ],
            [
              -119.91723263042245,
              38.00294290775434
            ],
            [
              -119.91730060863443,
              38.00298388466394
            ],
            [
              -119.91736306821875,
              38.003030034562045
            ],
            [
              -119.91741938314676,
              38.003080894897955
            ],
            [
              -119.91816938514386,
              38.003830890564736
            ],
            [
              -119.91841939061779,
              38.00408089392847
            ],
            [
              -119.91846690575237,
              38.004133381425724
            ],
            [
              -119.9185078702455,
              38.004189218906845
            ],
            [
              -119.91854190977404,
              38.00424789616302
            ],
            [
              -119.91856871328851,
              38.00430887703624
            ],
            [
              -119.91858803585585,
              38.004371604318095
            ],
            [
              -119.91859970089806,
              38.00443550484112
            ],
            [
              -119.91860360180615,
              38.00449999471604
            ],
            [
              -119.91859970291529,
              38.00456448466685
            ],
            [
              -119.91858803983116,
              38.004628385415344
            ],
            [
              -119.91856871910556,
              38.00469111306558
            ],
            [
              -119.91854191726333,
              38.00475209443943
            ],
            [
              -119.91850787919017,
              38.00481077231397
            ],
            [
              -119.91846691589554,
              38.00486661051336
            ],
            [
              -119.91841940167136,
              38.00491909880833
            ],
            [
              -119.91813341126816,
              38.00520509302438
            ],
            [
              -119.91833566476713,
              38.006822967713326
            ],
            [
              -119.91927783707244,
              38.008471736966754
            ],
            [
              -119.91930808400953,
              38.00853228255487
            ],
            [
              -119.91933082306772,
              38.008594850983386
            ],
            [
              -119.91934584296007,
              38.00865886093094
            ],
            [
              -119.91935300411681,
              38.008723717681576
            ],
            [
              -119.91935223998276,
              38.00878881865016
            ],
            [
              -119.91934355763652,
              38.008853558981
            ],
            [
              -119.91932703772551,
              38.00891733716745
            ],
            [
              -119.91930283371728,
              38.00897956064071
            ],
            [
              -119.91927117047459,
              38.00903965127538
            ],
            [
              -119.9185211812757,
              38.01028965573418
            ],
            [
              -119.91847895638402,
              38.01035150135024
            ],
            [
              -119.91842883610332,
              38.01040953988845
            ],
            [
              -119.91837136327219,
              38.010463142727914
            ],
            [
              -119.91830716036951,
              38.01051172928976
            ],
            [
              -119.91823692277259,
              38.010554773325744
            ],
            [
              -119.9181614112255,
              38.01059180861842
            ],
            [
              -119.91808144359946,
              38.010622434031255
            ],
            [
              -119.9176036751752,
              38.01078169132881
            ],
            [
              -119.9176036806733,
              38.01124999671904
            ],
            [
              -119.91759978171667,
              38.01131448220917
            ],
            [
              -119.91758811891417,
              38.011378378600455
            ],
            [
              -119.91756879880033,
              38.01144110211704
            ],
            [
              -119.91754199787015,
              38.011502079697294
            ],
            [
              -119.91750796096733,
              38.011560754229606
            ],
            [
              -119.9174669990479,
              38.01161658964236
            ],
            [
              -119.91741948633972,
              38.01166907580187
            ],
            [
              -119.91716948737695,
              38.011919077177275
            ],
            [
              -119.9171177097626,
              38.01196620310046
            ],
            [
              -119.91706065257199,
              38.01200934444543
            ],
            [
              -119.91699880346455,
              38.01204813248206
            ],
            [
              -119.91693269105905,
              38.01208223568736
            ],
            [
              -119.9168628804152,
              38.012111362579205
            ],
            [
              -119.91678996820427,
              38.012135264207856
            ],
            [
              -119.91512744218547,
              38.01261027356228
            ],
            [
              -119.91510369769087,
              38.01262214591263
            ],
            [
              -119.91510370308382,
              38.01308279198716
            ],
            [
              -119.91550511211227,
              38.013684895136855
            ],
            [
              -119.91554385604054,
              38.01375155007654
            ],
            [
              -119.9157938603771,
              38.01425154821917
            ],
            [
              -119.91582100980825,
              38.01431483391041
            ],
            [
              -119.91584012105528,
              38.01437993252518
            ],
            [
              -119.91585100698603,
              38.01444620670807
            ],
            [
              -119.9158535609981,
              38.01451300759249
            ],
            [
              -119.91584775806342,
              38.014579681153386
            ],
            [
              -119.91583365497402,
              38.01464557461048
            ],
            [
              -119.91581138978705,
              38.01471004281957
            ],
            [
              -119.91578118047379,
              38.014772454588886
            ],
            [
              -119.91574332278648,
              38.014832198859104
            ],
            [
              -119.91549676759784,
              38.01517751024722
            ],
            [
              -119.91548546100512,
              38.01535617649247
            ],
            [
              -119.91547763674617,
              38.01541963321823
            ],
            [
              -119.9154622842364,
              38.015482223538356
            ],
            [
              -119.9154395402612,
              38.015543389716804
            ],
            [
              -119.91540960747199,
              38.01560258670653
            ],
            [
              -119.91537275258081,
              38.015659287006386
            ],
            [
              -119.91532930398434,
              38.01571298536185
            ],
            [
              -119.91507180553829,
              38.01600038681775
            ],
            [
              -119.91502136256877,
              38.01605132684754
            ],
            [
              -119.91496498918325,
              38.016098214028816
            ],
            [
              -119.91490320283982,
              38.01614061796871
            ],
            [
              -119.91483657068699,
              38.016178149426686
            ],
            [
              -119.91476570435748,
              38.01621046388765
            ],
            [
              -119.91469125435397,
              38.01623726472469
            ],
            [
              -119.91442307845722,
              38.01632178380726
            ],
            [
              -119.91428780511647,
              38.01665926608712
            ],
            [
              -119.914256755321,
              38.0167247497994
            ],
            [
              -119.91421731236134,
              38.016787342218116
            ],
            [
              -119.91421381697808,
              38.016791694012326
            ],
            [
              -119.91431516299825,
              38.01704923632018
            ],
            [
              -119.91433504598065,
              38.017109391283505
            ],
            [
              -119.91434785233966,
              38.017170737868035
            ],
            [
              -119.91435347352964,
              38.017232756189905
            ],
            [
              -119.91435186189536,
              38.01729492067127
            ],
            [
              -119.91434303107648,
              38.0173567044944
            ],
            [
              -119.91432705589243,
              38.01741758406609
            ],
            [
              -119.91430407170915,
              38.01747704345505
            ],
            [
              -119.91402799219227,
              38.01808897953452
            ],
            [
              -119.91384509459161,
              38.01909605788836
            ],
            [
              -119.9138241570288,
              38.01917635411943
            ],
            [
              -119.91379107573226,
              38.01925405187535
            ],
            [
              -119.91367296420596,
              38.0194842249007
            ],
            [
              -119.91380197986588,
              38.01971102650834
            ],
            [
              -119.91383257555934,
              38.019772738314686
            ],
            [
              -119.91385537711396,
              38.019836525527296
            ],
            [
              -119.91387016488042,
              38.01990177373471
            ],
            [
              -119.91387679639823,
              38.01996785445126
            ],
            [
              -119.91387520776902,
              38.02003413117074
            ],
            [
              -119.91386541427275,
              38.020099965497295
            ],
            [
              -119.91384751022139,
              38.02016472329462
            ],
            [
              -119.91382166805126,
              38.02022778079418
            ],
            [
              -119.91378813666297,
              38.020288530603636
            ],
            [
              -119.91374723902462,
              38.02034638755759
            ],
            [
              -119.91369936906146,
              38.02040079435431
            ],
            [
              -119.91364498786191,
              38.02045122692407
            ],
            [
              -119.91358461923681,
              38.02049719947741
            ],
            [
              -119.91351884467376,
              38.02053826918478
            ],
            [
              -119.91344829773635,
              38.02057404044232
            ],
            [
              -119.9133736579612,
              38.02060416868269
            ],
            [
              -119.91329564431213,
              38.020628363694506
            ],
            [
              -119.9132150082546,
              38.020646392417866
            ],
            [
              -119.91313252651656,
              38.020658081189644
            ],
            [
              -119.91304899360624,
              38.02066331741633
            ],
            [
              -119.91296521415839,
              38.02066205065888
            ],
            [
              -119.9128819951829,
              38.02065429311847
            ],
            [
              -119.91281465514514,
              38.02064534664325
            ],
            [
              -119.91221409293463,
              38.02137024086847
            ],
            [
              -119.91216016606703,
              38.021428318303236
            ],
            [
              -119.91209872435532,
              38.021481520159774
            ],
            [
              -119.91203046719059,
              38.02152924082678
            ],
            [
              -119.91195617155077,
              38.02157093708554
            ],
            [
              -119.91095616738802,
              38.02207094111839
            ],
            [
              -119.91087786895953,
              38.02210567360054
            ],
            [
              -119.91079539340903,
              38.02213371084006
            ],
            [
              -119.91070965245024,
              38.02215474290101
            ],
            [
              -119.90964964385473,
              38.0223671451321
            ],
            [
              -119.90956122685876,
              38.02238097941521
            ],
            [
              -119.90947145895836,
              38.02238736348559
            ],
            [
              -119.90938134048662,
              38.02238622620093
            ],
            [
              -119.90929187568379,
              38.02237758023349
            ],
            [
              -119.90920406150565,
              38.022361521928964
            ],
            [
              -119.9091188765129,
              38.02233823023279
            ],
            [
              -119.90805565619834,
              38.02199682066957
            ],
            [
              -119.90546381785099,
              38.0251206209856
            ],
            [
              -119.9054099337426,
              38.02517857848478
            ],
            [
              -119.90534856205912,
              38.025231673435556
            ],
            [
              -119.90528039910458,
              38.02527930342474
            ],
            [
              -119.90520621824119,
              38.02532092804307
            ],
            [
              -119.9033293207317,
              38.02625938218933
            ],
            [
              -119.90328021587419,
              38.026308487538024
            ],
            [
              -119.90312582386149,
              38.026771679493066
            ],
            [
              -119.90333765562409,
              38.027618966273366
            ],
            [
              -119.90334981308108,
              38.027684167262755
            ],
            [
              -119.90335387913392,
              38.027749995100706
            ],
            [
              -119.90334981504638,
              38.02781582301407
            ],
            [
              -119.90333765949258,
              38.02788102422739
            ],
            [
              -119.90308767068211,
              38.028881025548415
            ],
            [
              -119.90306833093085,
              38.02894288926143
            ],
            [
              -119.90304170622318,
              38.02900303586814
            ],
            [
              -119.9030080335601,
              38.029060929930274
            ],
            [
              -119.90296761268715,
              38.02911605606095
            ],
            [
              -119.90292080342624,
              38.02916792351286
            ],
            [
              -119.90286802247304,
              38.029216070547214
            ],
            [
              -119.9028097396877,
              38.02926006854441
            ],
            [
              -119.9027464739121,
              38.029299525819994
            ],
            [
              -119.90188987124446,
              38.02978372953015
            ],
            [
              -119.90181922707052,
              38.02981964660088
            ],
            [
              -119.90174446411282,
              38.02984990108407
            ],
            [
              -119.90166630550537,
              38.02987420034485
            ],
            [
              -119.90158550722914,
              38.029892309349385
            ],
            [
              -119.90150285079922,
              38.02990405293853
            ],
            [
              -119.90141913570527,
              38.02990931752208
            ],
            [
              -119.9013351716779,
              38.02990805217772
            ],
            [
              -119.90125177085595,
              38.02990026914349
            ],
            [
              -119.90116973993047,
              38.02988604369961
            ],
            [
              -119.90108987234127,
              38.0298655134402
            ],
            [
              -119.90101294060209,
              38.0298388769423
            ],
            [
              -119.90093968882768,
              38.029806391845156
            ],
            [
              -119.90087082553617,
              38.029768372357935
            ],
            [
              -119.90080701679553,
              38.02972518622044
            ],
            [
              -119.90074887978095,
              38.02967725114594
            ],
            [
              -119.90069697680521,
              38.02962503078057
            ],
            [
              -119.90065180987988,
              38.029569030218646
            ],
            [
              -119.90061381585994,
              38.02950979111682
            ],
            [
              -119.90058336221873,
              38.02944788645486
            ],
            [
              -119.90056074349413,
              38.029383914993296
            ],
            [
              -119.90054617844038,
              38.02931849548195
            ],
            [
              -119.90053980791296,
              38.029252260674944
            ],
            [
              -119.900541693507,
              38.029185851210464
            ],
            [
              -119.90055181696228,
              38.02911990941439
            ],
            [
              -119.90057008034084,
              38.02905507308743
            ],
            [
              -119.90059630697509,
              38.028991969336325
            ],
            [
              -119.9008266985781,
              38.02851763098488
            ],
            [
              -119.90038532579906,
              38.028638536918486
            ],
            [
              -119.90030718822895,
              38.02865669022654
            ],
            [
              -119.90022721968268,
              38.02866887294456
            ],
            [
              -119.90014614757447,
              38.0286749742545
            ],
            [
              -119.90006470935793,
              38.02867493865641
            ],
            [
              -119.89998364581726,
              38.02866876647328
            ],
            [
              -119.89990369432851,
              38.02865651384815
            ],
            [
              -119.8998255821515,
              38.02863829223335
            ],
            [
              -119.89975001981404,
              38.028614267376796
            ],
            [
              -119.89967769464835,
              38.028584657813994
            ],
            [
              -119.89960926453837,
              38.028549732880265
            ],
            [
              -119.89954535193527,
              38.02850981026054
            ],
            [
              -119.89948653819532,
              38.02846525309943
            ],
            [
              -119.89943335829159,
              38.02841646669779
            ],
            [
              -119.89938629594769,
              38.02836389482587
            ],
            [
              -119.89878039981937,
              38.0276135909764
            ],
            [
              -119.8987402353968,
              38.02755825409726
            ],
            [
              -119.89870685187175,
              38.027500166093205
            ],
            [
              -119.89868054717599,
              38.02743984539918
            ],
            [
              -119.89866155606084,
              38.02737783037561
            ],
            [
              -119.89865004800272,
              38.027314674503536
            ],
            [
              -119.8986461256909,
              38.027250941444585
            ],
            [
              -119.89864743927792,
              38.02722830208143
            ],
            [
              -119.8986437713409,
              38.02722565218878
            ],
            [
              -119.89858747751424,
              38.027176092988235
            ],
            [
              -119.89853763033771,
              38.02712238776792
            ],
            [
              -119.89849471483318,
              38.027065059103975
            ],
            [
              -119.89803145938784,
              38.02637016624868
            ],
            [
              -119.89758032503828,
              38.025919027673034
            ],
            [
              -119.89753172223813,
              38.025865203323484
            ],
            [
              -119.89749000814405,
              38.02580787651171
            ],
            [
              -119.89745558280258,
              38.025747597035064
            ],
            [
              -119.89742877635425,
              38.02568494300744
            ],
            [
              -119.89740984586788,
              38.02562051531462
            ],
            [
              -119.89739897287599,
              38.02555493185122
            ],
            [
              -119.8973962616344,
              38.02548882159478
            ],
            [
              -119.89740173812315,
              38.025422818573276
            ],
            [
              -119.89741534979835,
              38.02535755578466
            ],
            [
              -119.89808041612858,
              38.02291909130372
            ],
            [
              -119.89803257297538,
              38.02286621209924
            ],
            [
              -119.89799141810718,
              38.022809997009524
            ],
            [
              -119.89795728049802,
              38.02275091433758
            ],
            [
              -119.8979304759207,
              38.022689510627046
            ],
            [
              -119.89791125231193,
              38.022626353890985
            ],
            [
              -119.89789978747919,
              38.02256202835738
            ],
            [
              -119.8978961874567,
              38.02249712906462
            ],
            [
              -119.89790048552537,
              38.0224322563571
            ],
            [
              -119.89791264190556,
              38.02236801033168
            ],
            [
              -119.89793254412598,
              38.02230498528666
            ],
            [
              -119.89796000806464,
              38.022243764224235
            ],
            [
              -119.89799477965296,
              38.02218491345773
            ],
            [
              -119.89999480357609,
              38.0191849252831
            ],
            [
              -119.9000374438196,
              38.019127924764184
            ],
            [
              -119.90008693611014,
              38.01907450223597
            ],
            [
              -119.90014280450764,
              38.019025171417134
            ],
            [
              -119.90020451176177,
              38.018980406678764
            ],
            [
              -119.90027146447825,
              38.01894063848296
            ],
            [
              -119.90034301882532,
              38.01890624924376
            ],
            [
              -119.90041848672463,
              38.018877569650066
            ],
            [
              -119.90110348264756,
              38.01864923852704
            ],
            [
              -119.9012978401079,
              38.01855206044703
            ],
            [
              -119.90264626176501,
              38.01563054653199
            ],
            [
              -119.90264626620635,
              38.015249996778245
            ],
            [
              -119.90264627526713,
              38.01446372813746
            ],
            [
              -119.89880170406707,
              38.01013852858908
            ],
            [
              -119.89875753331592,
              38.010083340631894
            ],
            [
              -119.89872030728506,
              38.010025034794104
            ],
            [
              -119.89869037415455,
              38.009964156443495
            ],
            [
              -119.89866801388744,
              38.00990127500878
            ],
            [
              -119.89865343561179,
              38.009836978653205
            ],
            [
              -119.89864677566521,
              38.00977186877304
            ],
            [
              -119.89864809632047,
              38.009706554372364
            ],
            [
              -119.89865738520362,
              38.00964164636657
            ],
            [
              -119.89867455541072,
              38.00957775186823
            ],
            [
              -119.89892456347498,
              38.00882775328958
            ],
            [
              -119.89895089437243,
              38.00876241464862
            ],
            [
              -119.8989854634877,
              38.00869952539069
            ],
            [
              -119.89902791441664,
              38.008639733859475
            ],
            [
              -119.89907780950215,
              38.00858365646158
            ],
            [
              -119.89913463434681,
              38.00853187131216
            ],
            [
              -119.89919780311637,
              38.00848491227526
            ],
            [
              -119.89926666457951,
              38.00844326346032
            ],
            [
              -119.89934050882171,
              38.008407354231764
            ],
            [
              -119.89941857456368,
              38.00837755478288
            ],
            [
              -119.89944115136214,
              38.00837002929626
            ],
            [
              -119.89785887973488,
              38.00694595153951
            ],
            [
              -119.89780793541475,
              38.0068954139126
            ],
            [
              -119.89776333056378,
              38.006841254258234
            ],
            [
              -119.89772547375857,
              38.006783968690726
            ],
            [
              -119.8976947117595,
              38.006724081957415
            ],
            [
              -119.8957228007911,
              38.00228717965535
            ],
            [
              -119.89501595636972,
              38.00134470752853
            ],
            [
              -119.89498921112458,
              38.001306251320436
            ],
            [
              -119.89277784358403,
              37.99786629622338
            ],
            [
              -119.89183068750927,
              37.99691913121939
            ],
            [
              -119.8917796403664,
              37.99686228032601
            ],
            [
              -119.89173627343445,
              37.99680156699006
            ],
            [
              -119.8917010490566,
              37.99673763851429
            ],
            [
              -119.89167434276008,
              37.996671176478586
            ],
            [
              -119.89165643925311,
              37.99660288947281
            ],
            [
              -119.8916475293903,
              37.996533505542054
            ],
            [
              -119.89164770813895,
              37.99646376442428
            ],
            [
              -119.89165697356756,
              37.99639440966356
            ],
            [
              -119.89190698777031,
              37.99514441087442
            ],
            [
              -119.8919267094372,
              37.99507187448527
            ],
            [
              -119.89195636577499,
              37.99500148758766
            ],
            [
              -119.89220637054423,
              37.994501489074985
            ],
            [
              -119.89224149117693,
              37.99444032888018
            ],
            [
              -119.8922841152818,
              37.994382232127535
            ],
            [
              -119.89233382118664,
              37.99432777353294
            ],
            [
              -119.89239011716643,
              37.9942774918208
            ],
            [
              -119.89245244630816,
              37.99423188439512
            ],
            [
              -119.89252019202026,
              37.99419140241916
            ],
            [
              -119.89259268413207,
              37.99415644635274
            ],
            [
              -119.89266920552355,
              37.99412736199099
            ],
            [
              -119.89274899921881,
              37.9941044370439
            ],
            [
              -119.89283127587409,
              37.99408789829044
            ],
            [
              -119.89291522158562,
              37.994077909335445
            ],
            [
              -119.89300000594059,
              37.99407456899131
            ],
            [
              -119.89383701192136,
              37.99407457077392
            ],
            [
              -119.89458073129109,
              37.99333085528977
            ],
            [
              -119.89463705051416,
              37.99327999145068
            ],
            [
              -119.89511565103608,
              37.99288909391356
            ],
            [
              -119.89517254621629,
              37.99284669354421
            ],
            [
              -119.89523410362467,
              37.99280858951761
            ],
            [
              -119.89529980712622,
              37.99277510131631
            ],
            [
              -119.89536910582557,
              37.99274650972108
            ],
            [
              -119.89544141868568,
              37.99272305445672
            ],
            [
              -119.89551613939943,
              37.992704932182384
            ],
            [
              -119.8968464286592,
              37.99243433501022
            ],
            [
              -119.89692711970334,
              37.99242117023259
            ],
            [
              -119.89700903871118,
              37.99241422395194
            ],
            [
              -119.89709142233598,
              37.99241356089504
            ],
            [
              -119.8971735029023,
              37.99241918723957
            ],
            [
              -119.89725451555853,
              37.99243105055671
            ],
            [
              -119.89733370540361,
              37.99244904029961
            ],
            [
              -119.89741033452086,
              37.99247298883345
            ],
            [
              -119.89748368885348,
              37.99250267299745
            ],
            [
              -119.89755308485816,
              37.9925378161842
            ],
            [
              -119.89761787587399,
              37.992578090917014
            ],
            [
              -119.89767745814818,
              37.99262312190126
            ],
            [
              -119.89773127646194,
              37.99267248952133
            ],
            [
              -119.89777882930416,
              37.99272573375047
            ],
            [
              -119.89780256363302,
              37.992758638009356
            ],
            [
              -119.89950559328571,
              37.99269205655303
            ],
            [
              -119.90008635883031,
              37.992443621122455
            ],
            [
              -119.90016977336452,
              37.99241242436257
            ],
            [
              -119.90025695555119,
              37.99238853544823
            ],
            [
              -119.90034688663518,
              37.992372233527995
            ],
            [
              -119.90043851574254,
              37.99236370909367
            ],
            [
              -119.9009785786269,
              37.99233677079268
            ],
            [
              -119.90149177756983,
              37.99208017277357
            ],
            [
              -119.90133075845915,
              37.9919191512866
            ],
            [
              -119.90124324978997,
              37.99183164214417
            ],
            [
              -119.89949291134879,
              37.99139405560918
            ],
            [
              -119.89941356025454,
              37.9913707331267
            ],
            [
              -119.89933751874322,
              37.99134130454281
            ],
            [
              -119.89926553483777,
              37.99130605934823
            ],
            [
              -119.8991983166435,
              37.99126534425182
            ],
            [
              -119.89913652538205,
              37.99121955976982
            ],
            [
              -119.89908076888672,
              37.99116915628563
            ],
            [
              -119.89883076955249,
              37.99091915484198
            ],
            [
              -119.89878325108751,
              37.99086666165284
            ],
            [
              -119.89874228392028,
              37.990810817117456
            ],
            [
              -119.89870824248796,
              37.990752131670966
            ],
            [
              -119.89868143792202,
              37.99069114171428
            ],
            [
              -119.89866211520503,
              37.99062840471076
            ],
            [
              -119.89865045093197,
              37.99056449409094
            ],
            [
              -119.89864655169679,
              37.990499994010996
            ],
            [
              -119.89865045311889,
              37.99043549401338
            ],
            [
              -119.89866211951815,
              37.99037158363829
            ],
            [
              -119.89868144424194,
              37.99030884703515
            ],
            [
              -119.89870825064058,
              37.99024785762342
            ],
            [
              -119.89874229368272,
              37.9901891728516
            ],
            [
              -119.89878326219544,
              37.9901333291022
            ],
            [
              -119.89883078170902,
              37.990080836789346
            ],
            [
              -119.89928515514787,
              37.989626470040946
            ],
            [
              -119.89893380475615,
              37.989601017268754
            ],
            [
              -119.898849417638,
              37.98959152118204
            ],
            [
              -119.898766648283,
              37.989575410581466
            ],
            [
              -119.89868632231425,
              37.989552846169275
            ],
            [
              -119.89860924098033,
              37.98952405302442
            ],
            [
              -119.89853617316244,
              37.98948931835713
            ],
            [
              -119.89846784770425,
              37.98944898864393
            ],
            [
              -119.89840494614143,
              37.98940346617123
            ],
            [
              -119.89834809590334,
              37.98935320502238
            ],
            [
              -119.8982978640543,
              37.98929870654788
            ],
            [
              -119.89825475163737,
              37.98924051436421
            ],
            [
              -119.89821918867689,
              37.989179208931056
            ],
            [
              -119.89819152988949,
              37.989115401761055
            ],
            [
              -119.89817205114635,
              37.98904972931974
            ],
            [
              -119.89816094672233,
              37.988982846676834
            ],
            [
              -119.89815832735886,
              37.98891542097184
            ],
            [
              -119.89816421916014,
              37.988848124759386
            ],
            [
              -119.89817856333381,
              37.98878162930062
            ],
            [
              -119.89820121677825,
              37.988716597867594
            ],
            [
              -119.89823195351083,
              37.98865367912734
            ],
            [
              -119.89827046692294,
              37.9885935006718
            ],
            [
              -119.89831637283898,
              37.98853666275797
            ],
            [
              -119.89836921334903,
              37.988483732320745
            ],
            [
              -119.89859288526111,
              37.98828133781221
            ],
            [
              -119.8985690279292,
              37.98827708515349
            ],
            [
              -119.89848984457551,
              37.988256366573054
            ],
            [
              -119.89841359452655,
              37.98822963005755
            ],
            [
              -119.89834100596079,
              37.98819713093769
            ],
            [
              -119.8982727720876,
              37.98815917957632
            ],
            [
              -119.8982095445265,
              37.98811613840425
            ],
            [
              -119.89815192708446,
              37.988068418458916
            ],
            [
              -119.89810046998926,
              37.98801647545877
            ],
            [
              -119.89805566463527,
              37.98796080545099
            ],
            [
              -119.89801793889065,
              37.98790194007403
            ],
            [
              -119.897987653012,
              37.98784044148045
            ],
            [
              -119.89796509620419,
              37.9877768969681
            ],
            [
              -119.89795048385929,
              37.98771191337152
            ],
            [
              -119.89794395550031,
              37.98764611126653
            ],
            [
              -119.89794557344949,
              37.987580119043955
            ],
            [
              -119.89795532223415,
              37.987514566908466
            ],
            [
              -119.89797310873504,
              37.9874500808604
            ],
            [
              -119.89799876307659,
              37.98738727671765
            ],
            [
              -119.89803204024984,
              37.987326754234935
            ],
            [
              -119.89807262245299,
              37.987269091376525
            ],
            [
              -119.89812012212683,
              37.98721483879706
            ],
            [
              -119.89882224319959,
              37.986491162967226
            ],
            [
              -119.89896140172023,
              37.98575108143742
            ],
            [
              -119.89897755569257,
              37.985686783211186
            ],
            [
              -119.89900150934733,
              37.985624027320235
            ],
            [
              -119.89903303700831,
              37.9855634049586
            ],
            [
              -119.89907184165023,
              37.98550548721979
            ],
            [
              -119.89911755769722,
              37.98545081971703
            ],
            [
              -119.89916975446754,
              37.98539991744344
            ],
            [
              -119.89922794023096,
              37.98535325992076
            ],
            [
              -119.89929156684153,
              37.985311286682354
            ],
            [
              -119.89936003490138,
              37.98527439313276
            ],
            [
              -119.89943269940736,
              37.98524292682311
            ],
            [
              -119.8995088758271,
              37.98521718417731
            ],
            [
              -119.89993285365526,
              37.98509279098621
            ],
            [
              -119.90070332894437,
              37.98486669878959
            ],
            [
              -119.90071024540084,
              37.98486469598669
            ],
            [
              -119.902149434997,
              37.984453502316654
            ],
            [
              -119.90215052432393,
              37.984435491836045
            ],
            [
              -119.9021621909002,
              37.98437157795514
            ],
            [
              -119.90218151601798,
              37.9843088380314
            ],
            [
              -119.90220832300398,
              37.984247845579745
            ],
            [
              -119.90224236679362,
              37.98418915813975
            ],
            [
              -119.90228333617185,
              37.984133312179225
            ],
            [
              -119.90233085661853,
              37.98408081819047
            ],
            [
              -119.90258085765252,
              37.983830819564965
            ],
            [
              -119.90283086090413,
              37.983580818721805
            ],
            [
              -119.9028866153232,
              37.98353041740431
            ],
            [
              -119.9029484034656,
              37.98348463534107
            ],
            [
              -119.90301561752442,
              37.983443922879296
            ],
            [
              -119.90308759632269,
              37.98340868049679
            ],
            [
              -119.90316363181732,
              37.983379254862925
            ],
            [
              -119.9032429760635,
              37.98335593542877
            ],
            [
              -119.90399334075263,
              37.98316834563896
            ],
            [
              -119.90483087411265,
              37.98233081800589
            ],
            [
              -119.90539665615712,
              37.9817650432054
            ],
            [
              -119.90539665998803,
              37.9814353764994
            ],
            [
              -119.90476622190319,
              37.98059477945311
            ],
            [
              -119.90473397029992,
              37.980547603391585
            ],
            [
              -119.90470655006679,
              37.980498550366455
            ],
            [
              -119.9044565543953,
              37.97999854851114
            ],
            [
              -119.90443011029467,
              37.979937208042074
            ],
            [
              -119.9044112158885,
              37.97987414376027
            ],
            [
              -119.90440004514053,
              37.97980993637277
            ],
            [
              -119.90439670089255,
              37.97974517711107
            ],
            [
              -119.90440121391822,
              37.97968046228691
            ],
            [
              -119.90441354264051,
              37.979616387801244
            ],
            [
              -119.90443357351509,
              37.97955354365723
            ],
            [
              -119.90446112207687,
              37.97949250852737
            ],
            [
              -119.90449593463903,
              37.97943384442521
            ],
            [
              -119.9045376906298,
              37.9793780915304
            ],
            [
              -119.90569755439242,
              37.977986274280916
            ],
            [
              -119.90593370064225,
              37.97708267828867
            ],
            [
              -119.90595418718127,
              37.97701972881638
            ],
            [
              -119.9059822236902,
              37.976958629758556
            ],
            [
              -119.90601755046275,
              37.97689994704388
            ],
            [
              -119.90605984026877,
              37.97684422421841
            ],
            [
              -119.90610870138588,
              37.976791977411004
            ],
            [
              -119.90616368122824,
              37.97674369055299
            ],
            [
              -119.90622427053884,
              37.97669981089599
            ],
            [
              -119.90628990810671,
              37.97666074486948
            ],
            [
              -119.90635998596508,
              37.976626854316564
            ],
            [
              -119.90643385502256,
              37.97659845314268
            ],
            [
              -119.9109461255762,
              37.9750712671568
            ],
            [
              -119.91182243233727,
              37.974774665654884
            ],
            [
              -119.91186008309474,
              37.97476275132592
            ],
            [
              -119.91313975001046,
              37.97438546022774
            ],
            [
              -119.91442898433706,
              37.97381141604807
            ],
            [
              -119.91450507245978,
              37.97378138366877
            ],
            [
              -119.9145845585461,
              37.97375749461814
            ],
            [
              -119.91466665337761,
              37.973739986089136
            ],
            [
              -119.91475054183591,
              37.973729031922446
            ],
            [
              -119.91483539099544,
              37.97372474088064
            ],
            [
              -119.91492035839288,
              37.97372715556833
            ],
            [
              -119.91500460039128,
              37.973736252009246
            ],
            [
              -119.9150872805558,
              37.97375193988433
            ],
            [
              -119.91516757795787,
              37.973774063428465
            ],
            [
              -119.91524469532568,
              37.97380240297694
            ],
            [
              -119.91531786695967,
              37.973836677146444
            ],
            [
              -119.9153863663346,
              37.973876545628606
            ],
            [
              -119.91544951331305,
              37.9739216125688
            ],
            [
              -119.91550668089825,
              37.97397143049631
            ],
            [
              -119.91555730145953,
              37.97402550476698
            ],
            [
              -119.91560087236854,
              37.97408329847433
            ],
            [
              -119.91590667546416,
              37.974539096396924
            ],
            [
              -119.91616028248185,
              37.97491710130736
            ],
            [
              -119.91619047049493,
              37.97496691411089
            ],
            [
              -119.91621541448687,
              37.975018513281846
            ],
            [
              -119.91627421287129,
              37.97515684568109
            ],
            [
              -119.91708346702951,
              37.975757163560964
            ],
            [
              -119.9171439587881,
              37.975806869423785
            ],
            [
              -119.91719772659694,
              37.975861202341
            ],
            [
              -119.91724420902001,
              37.97591959499031
            ],
            [
              -119.91728292068879,
              37.97598143765817
            ],
            [
              -119.91731345737074,
              37.976046084605855
            ],
            [
              -119.91733550019075,
              37.97611286081174
            ],
            [
              -119.91734881896156,
              37.97618106901952
            ],
            [
              -119.91735327458817,
              37.97624999701845
            ],
            [
              -119.91735327832674,
              37.97657457669229
            ]
          ]
        ]
      }
    }
  ]
}