{
  "type": "FeatureCollection",
  "features": [
    {
      "type": "Feature",
      "properties": {
        "reservoir_name": "LOS BANOS DAM",
        "cdec_station_id": "LBS",
        "source": "dynamic_world_water_frequency_0.05_75m_buffer"
      },
      "geometry": {
        "type": "Polygon",
        "coordinates": [
          [
            [
              -120.95390090818445,
              36.98229305613942
            ],
            [
              -120.95350790922019,
              36.98216323695811
            ],
            [
              -120.95300015286118,
              36.98218015998136
            ],
            [
              -120.95264264316258,
              36.98233330841389
            ],
            [
              -120.95226755854101,
              36.98252476028727
            ],
            [
              -120.95183084636975,
              36.98298374673699
            ],
            [
              -120.95173855260984,
              36.98328091809344
            ],
            [
              -120.95177092989194,
              36.98364563873302
            ],
            [
              -120.95195945148895,
              36.98391561380831
            ],
            [
              -120.95226136246076,
              36.98408275960832
            ],
            [
              -120.95225094777578,
              36.98413786297491
            ],
            [
              -120.95185096422578,
              36.984330742544266
            ],
            [
              -120.95173471026686,
              36.98434260659648
            ],
            [
              -120.95150546761398,
              36.98431280518053
            ],
            [
              -120.95056610215251,
              36.98431185766024
            ],
            [
              -120.95012506796455,
              36.98415195334357
            ],
            [
              -120.94982647318317,
              36.983891636590236
            ],
            [
              -120.94967590660288,
              36.98379262669678
            ],
            [
              -120.94937731328841,
              36.983532310476605
            ],
            [
              -120.94881727509082,
              36.98292855375366
            ],
            [
              -120.94826496191433,
              36.98258180091641
            ],
            [
              -120.94789925886725,
              36.98221378813989
            ],
            [
              -120.94757988231093,
              36.982052696108575
            ],
            [
              -120.9472768105584,
              36.98186314818001
            ],
            [
              -120.9468829956846,
              36.98170674341642
            ],
            [
              -120.94637014556895,
              36.98135968015551
            ],
            [
              -120.94677836570058,
              36.98127128474038
            ],
            [
              -120.94722419117512,
              36.981084427544445
            ],
            [
              -120.94753247437528,
              36.98073942626182
            ],
            [
              -120.94776093376028,
              36.98022945759082
            ],
            [
              -120.9477397450465,
              36.97987753598442
            ],
            [
              -120.94754802820853,
              36.979591951018755
            ],
            [
              -120.94722860701536,
              36.979417443474595
            ],
            [
              -120.94692406325167,
              36.97937207111785
            ],
            [
              -120.94614038037382,
              36.97940478412745
            ],
            [
              -120.94596675867245,
              36.97946454486661
            ],
            [
              -120.94561509279531,
              36.97930975496558
            ],
            [
              -120.94503759995983,
              36.97919240806103
            ],
            [
              -120.94403563660248,
              36.97921034498752
            ],
            [
              -120.94368925440546,
              36.97934817440394
            ],
            [
              -120.94345069260706,
              36.97946190348845
            ],
            [
              -120.94317471101446,
              36.97936378552097
            ],
            [
              -120.94271692841774,
              36.97914197659465
            ],
            [
              -120.9424653122314,
              36.979093515009765
            ],
            [
              -120.94215639451502,
              36.97889870558333
            ],
            [
              -120.94182332672959,
              36.97883416495024
            ],
            [
              -120.94121268873761,
              36.97885894842759
            ],
            [
              -120.94058361636885,
              36.9790982429082
            ],
            [
              -120.94016934062762,
              36.979173372695435
            ],
            [
              -120.93984865997407,
              36.97939649401266
            ],
            [
              -120.93961455461414,
              36.97955485625221
            ],
            [
              -120.93935987964865,
              36.97951931484416
            ],
            [
              -120.93901889034505,
              36.97946190264626
            ],
            [
              -120.93853571218862,
              36.97951158667782
            ],
            [
              -120.93803892568604,
              36.979775108092184
            ],
            [
              -120.93785200853443,
              36.98004352957039
            ],
            [
              -120.93779661059092,
              36.98013778627773
            ],
            [
              -120.93743950607185,
              36.98035588430592
            ],
            [
              -120.93702803834059,
              36.980527429924166
            ],
            [
              -120.93646967585165,
              36.98109728133026
            ],
            [
              -120.93639640549243,
              36.98123949813266
            ],
            [
              -120.93579312282077,
              36.98157173866017
            ],
            [
              -120.93553586179108,
              36.98186982345325
            ],
            [
              -120.93534673286389,
              36.98228490396423
            ],
            [
              -120.93514627102734,
              36.98257408612651
            ],
            [
              -120.93506718919733,
              36.98297832710881
            ],
            [
              -120.93479489655405,
              36.98319799397369
            ],
            [
              -120.93467632940921,
              36.983411286754766
            ],
            [
              -120.93440344557978,
              36.98364383692411
            ],
            [
              -120.93378006061307,
              36.98395125336428
            ],
            [
              -120.93360569589169,
              36.98408989716112
            ],
            [
              -120.93328569904378,
              36.98426008828269
            ],
            [
              -120.93310714327328,
              36.98443344487557
            ],
            [
              -120.9327898585685,
              36.984579096624074
            ],
            [
              -120.93233731540874,
              36.98490147832182
            ],
            [
              -120.93202017017605,
              36.98507516814863
            ],
            [
              -120.93150847647682,
              36.98561363345555
            ],
            [
              -120.93144746900816,
              36.98569227584527
            ],
            [
              -120.93113494160761,
              36.98595419558627
            ],
            [
              -120.9309983085632,
              36.98614143348727
            ],
            [
              -120.93068577984768,
              36.98640335322828
            ],
            [
              -120.93004386029612,
              36.98705146189301
            ],
            [
              -120.92985692526588,
              36.98731988337097
            ],
            [
              -120.92972977926055,
              36.987682662985144
            ],
            [
              -120.92946027469684,
              36.988580978269155
            ],
            [
              -120.92949265157353,
              36.98921519410611
            ],
            [
              -120.92959016097593,
              36.989384256309485
            ],
            [
              -120.92968567480965,
              36.98996786191527
            ],
            [
              -120.9300146007417,
              36.990359727367036
            ],
            [
              -120.93006973515325,
              36.990401756464
            ],
            [
              -120.9302332568683,
              36.990747568650626
            ],
            [
              -120.9304618823606,
              36.9910094290277
            ],
            [
              -120.93060092196691,
              36.99129580779276
            ],
            [
              -120.93091290451092,
              36.991707200293135
            ],
            [
              -120.9311255523822,
              36.991936901313856
            ],
            [
              -120.93147779326846,
              36.99244960924192
            ],
            [
              -120.93167888803954,
              36.99264328071877
            ],
            [
              -120.93231146985323,
              36.99325193670274
            ],
            [
              -120.93277091121362,
              36.99344817534712
            ],
            [
              -120.93342316896387,
              36.99365125165559
            ],
            [
              -120.93534966578596,
              36.99363970189297
            ],
            [
              -120.93570869583723,
              36.99349334815529
            ],
            [
              -120.93626910959377,
              36.99294906121112
            ],
            [
              -120.93657227708376,
              36.99273489884331
            ],
            [
              -120.936746339875,
              36.992574934253604
            ],
            [
              -120.93730228152008,
              36.99227433310575
            ],
            [
              -120.93774529516334,
              36.99182388419193
            ],
            [
              -120.93835469386768,
              36.991188997070914
            ],
            [
              -120.9384515438051,
              36.990852463958156
            ],
            [
              -120.93892096529912,
              36.99037999150974
            ],
            [
              -120.93907333621189,
              36.99020084996724
            ],
            [
              -120.93935702480867,
              36.989500963820674
            ],
            [
              -120.93958139975024,
              36.989048262294176
            ],
            [
              -120.93957189499197,
              36.98833657932541
            ],
            [
              -120.93941102678474,
              36.98807419952098
            ],
            [
              -120.93902848982464,
              36.987704197020854
            ],
            [
              -120.9389113490587,
              36.987492562000384
            ],
            [
              -120.93887735768536,
              36.98728862662058
            ],
            [
              -120.93945204745309,
              36.98697298807428
            ],
            [
              -120.9396626401597,
              36.98680935692473
            ],
            [
              -120.93992876933311,
              36.98658491229517
            ],
            [
              -120.94011187252092,
              36.986122193470095
            ],
            [
              -120.9401838996209,
              36.985985297326735
            ],
            [
              -120.94048618703194,
              36.98606541443008
            ],
            [
              -120.94093086373053,
              36.98626270483096
            ],
            [
              -120.94141082559219,
              36.986347257691605
            ],
            [
              -120.94172091834699,
              36.9864568900242
            ],
            [
              -120.94187319360722,
              36.98648226951229
            ],
            [
              -120.94213517667302,
              36.986712621555895
            ],
            [
              -120.94310155620525,
              36.98707013682991
            ],
            [
              -120.94372303254445,
              36.98726078434889
            ],
            [
              -120.94401076269547,
              36.98746445531152
            ],
            [
              -120.94456130153571,
              36.98773039600782
            ],
            [
              -120.94483011463947,
              36.98797026295361
            ],
            [
              -120.94573010210355,
              36.988261360562724
            ],
            [
              -120.94620541062514,
              36.988357580925594
            ],
            [
              -120.94642386047246,
              36.988357581301564
            ],
            [
              -120.94723806369437,
              36.988616723339995
            ],
            [
              -120.9477713326806,
              36.98862707619601
            ],
            [
              -120.94860470452736,
              36.98889018064985
            ],
            [
              -120.95054980609491,
              36.988873257720876
            ],
            [
              -120.9507568118836,
              36.98880673877833
            ],
            [
              -120.95118020713947,
              36.98875705327836
            ],
            [
              -120.95165512617771,
              36.98862707572151
            ],
            [
              -120.95207852170654,
              36.98857739022156
            ],
            [
              -120.95264589375267,
              36.98844590381091
            ],
            [
              -120.95315491621108,
              36.988424100465124
            ],
            [
              -120.95350815596375,
              36.98834680759039
            ],
            [
              -120.9538666840749,
              36.988235749120996
            ],
            [
              -120.95430992508288,
              36.98808626275358
            ],
            [
              -120.9547018675427,
              36.98800258701552
            ],
            [
              -120.95542024767826,
              36.987972387881626
            ],
            [
              -120.95575394348776,
              36.987897649948344
            ],
            [
              -120.9560310473983,
              36.98782898619207
            ],
            [
              -120.95623939807865,
              36.987910058480914
            ],
            [
              -120.95649470258537,
              36.98814239051442
            ],
            [
              -120.95729493317347,
              36.98850744123776
            ],
            [
              -120.95750743196609,
              36.98855322097261
            ],
            [
              -120.95771220727606,
              36.98903022332245
            ],
            [
              -120.95822170757164,
              36.98955124361139
            ],
            [
              -120.9584503444186,
              36.98986050750979
            ],
            [
              -120.95873302029709,
              36.99006532568823
            ],
            [
              -120.95902348148208,
              36.990305882692205
            ],
            [
              -120.95919329561922,
              36.99040903386688
            ],
            [
              -120.9595304397966,
              36.99073665390731
            ],
            [
              -120.9599043064046,
              36.9908625116161
            ],
            [
              -120.96054065355372,
              36.990846996790765
            ],
            [
              -120.96087865547092,
              36.99069640108402
            ],
            [
              -120.96109713567579,
              36.99044123132938
            ],
            [
              -120.96115301754668,
              36.990076617419376
            ],
            [
              -120.96104689301156,
              36.989779330933246
            ],
            [
              -120.96078595513444,
              36.989551022879944
            ],
            [
              -120.96068506147034,
              36.98950706186058
            ],
            [
              -120.96050975431788,
              36.989227682883474
            ],
            [
              -120.96020726184187,
              36.988908142932246
            ],
            [
              -120.96000545602597,
              36.98864666352478
            ],
            [
              -120.95970796947039,
              36.98838321301064
            ],
            [
              -120.95961329515912,
              36.98830848406773
            ],
            [
              -120.95953694869843,
              36.988098929562966
            ],
            [
              -120.95950455946011,
              36.98758743585042
            ],
            [
              -120.95931602286834,
              36.98731746340184
            ],
            [
              -120.95877527838628,
              36.986983548868025
            ],
            [
              -120.95829522020121,
              36.98684564336372
            ],
            [
              -120.9580302685029,
              36.98666723986989
            ],
            [
              -120.95792879571769,
              36.98656236541764
            ],
            [
              -120.95847690327861,
              36.985978768423536
            ],
            [
              -120.95855615841626,
              36.985743569280324
            ],
            [
              -120.95880740083686,
              36.985540803546186
            ],
            [
              -120.95916353315805,
              36.98522212354986
            ],
            [
              -120.95926002977211,
              36.98498695344008
            ],
            [
              -120.95933580573994,
              36.98468488901567
            ],
            [
              -120.95961037709446,
              36.98422157377763
            ],
            [
              -120.95965170765075,
              36.98411511843153
            ],
            [
              -120.95982198053304,
              36.984019800631536
            ],
            [
              -120.96048953696933,
              36.983710233480394
            ],
            [
              -120.96075922163838,
              36.98344057813932
            ],
            [
              -120.96107318001151,
              36.98323833918233
            ],
            [
              -120.96135733182267,
              36.98290938317523
            ],
            [
              -120.96142335029971,
              36.98265209739462
            ],
            [
              -120.9614413035538,
              36.98202618117377
            ],
            [
              -120.96156375402008,
              36.98175171688112
            ],
            [
              -120.96194749765236,
              36.98123626246745
            ],
            [
              -120.96240063338678,
              36.98095939559735
            ],
            [
              -120.96271314148977,
              36.98069747403695
            ],
            [
              -120.96284580620788,
              36.980517611463576
            ],
            [
              -120.96312619332167,
              36.980339262908096
            ],
            [
              -120.96347944326693,
              36.98026197003337
            ],
            [
              -120.96392860077184,
              36.98017213850496
            ],
            [
              -120.96480053740568,
              36.97991341725488
            ],
            [
              -120.9655711857694,
              36.97988755032461
            ],
            [
              -120.9657033655446,
              36.97987478089936
            ],
            [
              -120.96674905703763,
              36.97997525656597
            ],
            [
              -120.96711001793336,
              36.9800866914336
            ],
            [
              -120.96733415748189,
              36.980125498667064
            ],
            [
              -120.96843487675868,
              36.98045335206823
            ],
            [
              -120.96893989739219,
              36.980617842792796
            ],
            [
              -120.96909326240564,
              36.980645259616246
            ],
            [
              -120.96934068535717,
              36.98086605225905
            ],
            [
              -120.96969886756938,
              36.98098307728533
            ],
            [
              -120.97014167188343,
              36.980992340758185
            ],
            [
              -120.97054975402872,
              36.981081227124236
            ],
            [
              -120.9709479081161,
              36.98108122780937
            ],
            [
              -120.97135823300343,
              36.98117105865262
            ],
            [
              -120.97343820322901,
              36.981153119225475
            ],
            [
              -120.97366380879211,
              36.98108122749283
            ],
            [
              -120.97410518452408,
              36.98105536019396
            ],
            [
              -120.9742926273504,
              36.9809913969117
            ],
            [
              -120.97463100280382,
              36.98099139689925
            ],
            [
              -120.97504132447311,
              36.9810812271242
            ],
            [
              -120.97739079141414,
              36.981063287478385
            ],
            [
              -120.97776690949017,
              36.98090476448761
            ],
            [
              -120.97806597219798,
              36.98057376343681
            ],
            [
              -120.97813198864873,
              36.98031647765617
            ],
            [
              -120.97810952745188,
              36.97971275259875
            ],
            [
              -120.97793698718269,
              36.97943604628721
            ],
            [
              -120.97762810954443,
              36.979249820258914
            ],
            [
              -120.97686573075957,
              36.97913056414733
            ],
            [
              -120.97650477254454,
              36.97901913311422
            ],
            [
              -120.97589856473728,
              36.97901179748405
            ],
            [
              -120.97535613673135,
              36.97884343382245
            ],
            [
              -120.97486166818945,
              36.97874325041897
            ],
            [
              -120.97400119688145,
              36.978769116899166
            ],
            [
              -120.97354425786807,
              36.97892291416011
            ],
            [
              -120.97294276256271,
              36.978946224778305
            ],
            [
              -120.97277720580252,
              36.97898032567369
            ],
            [
              -120.97217387949138,
              36.978852408070615
            ],
            [
              -120.97147420877363,
              36.97865980726268
            ],
            [
              -120.97134428509457,
              36.978623056828475
            ],
            [
              -120.97153749036907,
              36.97835747914213
            ],
            [
              -120.97166186151772,
              36.977662384182835
            ],
            [
              -120.97154613431519,
              36.97736739720449
            ],
            [
              -120.97128641419367,
              36.97715017339724
            ],
            [
              -120.97086880570771,
              36.976976421780826
            ],
            [
              -120.97028025904554,
              36.97685678832233
            ],
            [
              -120.96979000958521,
              36.976855840962415
            ],
            [
              -120.96938194734676,
              36.9767669567939
            ],
            [
              -120.96898861088651,
              36.976816640886106
            ],
            [
              -120.96844969322576,
              36.97693622350549
            ],
            [
              -120.96809029489313,
              36.977086135350156
            ],
            [
              -120.96801349475372,
              36.97709296680242
            ],
            [
              -120.96727554403,
              36.976796758724
            ],
            [
              -120.96668699990093,
              36.976677125265496
            ],
            [
              -120.96600619714248,
              36.976702991745725
            ],
            [
              -120.96566825580324,
              36.97685358518105
            ],
            [
              -120.96524529775479,
              36.9770913938088
            ],
            [
              -120.96519559228672,
              36.977134654423736
            ],
            [
              -120.96411973367853,
              36.97715214938776
            ],
            [
              -120.9635995877823,
              36.977398900487174
            ],
            [
              -120.96311987155788,
              36.977402165515464
            ],
            [
              -120.96171382635868,
              36.97741908871811
            ],
            [
              -120.96150683878275,
              36.97748561096845
            ],
            [
              -120.96105191165452,
              36.97748561141489
            ],
            [
              -120.96115379487027,
              36.977172374162066
            ],
            [
              -120.96109159813511,
              36.97684007844484
            ],
            [
              -120.96087417724796,
              36.97658674731973
            ],
            [
              -120.96021227608375,
              36.97626467962226
            ],
            [
              -120.9599496336766,
              36.97622796762344
            ],
            [
              -120.95890950776517,
              36.97625383410365
            ],
            [
              -120.95839190469138,
              36.9764942590674
            ],
            [
              -120.95817988193093,
              36.97668183992191
            ],
            [
              -120.95763532400417,
              36.97706087427414
            ],
            [
              -120.95749583330843,
              36.97734922586862
            ],
            [
              -120.95751701120744,
              36.977880809625944
            ],
            [
              -120.95770871672472,
              36.97816639622541
            ],
            [
              -120.95796561531314,
              36.97831663723554
            ],
            [
              -120.95774851955234,
              36.97847229414034
            ],
            [
              -120.95738723402927,
              36.97815279502516
            ],
            [
              -120.95701133292486,
              36.97803098669487
            ],
            [
              -120.95612472491526,
              36.97805046467188
            ],
            [
              -120.95560711386263,
              36.978290889635545
            ],
            [
              -120.95538866399502,
              36.978546056902324
            ],
            [
              -120.95508380235108,
              36.978822676258716
            ],
            [
              -120.95497253351817,
              36.97914866778693
            ],
            [
              -120.95493949797988,
              36.97935454065795
            ],
            [
              -120.95488361606962,
              36.97971915221327
            ],
            [
              -120.95498971951314,
              36.98001644030716
            ],
            [
              -120.95525062036938,
              36.980244751510504
            ],
            [
              -120.95548660323186,
              36.98033034838202
            ],
            [
              -120.95524939806133,
              36.98094605895984
            ],
            [
              -120.95519673575903,
              36.981212412665926
            ],
            [
              -120.9547893097834,
              36.98164660237553
            ],
            [
              -120.95463306673881,
              36.981968884995254
            ],
            [
              -120.95441855286614,
              36.982205290631605
            ],
            [
              -120.95434385671503,
              36.98242662228904
            ],
            [
              -120.95390090818445,
              36.98229305613942
            ]
          ]
        ]
      }
    }
  ]
}