{
  "type": "FeatureCollection",
  "features": [
    {
      "type": "Feature",
      "properties": {
        "reservoir_name": "PERRIS",
        "cdec_station_id": "PRR",
        "source": "osm_tight_polygon_75m_buffer"
      },
      "geometry": {
        "type": "Polygon",
        "coordinates": [
          [
            [
              -117.19304663208493,
              33.861450535526316
            ],
            [
              -117.1930265014494,
              33.86146976438328
            ],
            [
              -117.19298010132768,
              33.86151053438662
            ],
            [
              -117.19292980323488,
              33.86154794917525
            ],
            [
              -117.19287595460571,
              33.86158175030245
            ],
            [
              -117.1926206537452,
              33.861728551245285
            ],
            [
              -117.19255052531916,
              33.8617646341286
            ],
            [
              -117.1924763694494,
              33.86179459336866
            ],
            [
              -117.19231766850714,
              33.861850593772985
            ],
            [
              -117.1922244789268,
              33.861878022690746
            ],
            [
              -117.19212798175467,
              33.86189579061722
            ],
            [
              -117.19180247235711,
              33.861938570801904
            ],
            [
              -117.19148156745462,
              33.861992400639224
            ],
            [
              -117.19138068724148,
              33.86204429204288
            ],
            [
              -117.19130077023199,
              33.86209472186781
            ],
            [
              -117.19089456498972,
              33.86235673313878
            ],
            [
              -117.190841029557,
              33.862388460244574
            ],
            [
              -117.19050062827337,
              33.86257336145385
            ],
            [
              -117.19042423242878,
              33.86261008605411
            ],
            [
              -117.19034350829307,
              33.86263967342645
            ],
            [
              -117.19005810649068,
              33.8627291740841
            ],
            [
              -117.18997301738912,
              33.86275148539979
            ],
            [
              -117.18988550556732,
              33.862765865172605
            ],
            [
              -117.18943829127625,
              33.862818230670555
            ],
            [
              -117.18909245854626,
              33.86290528160273
            ],
            [
              -117.18870077499176,
              33.86306331604651
            ],
            [
              -117.18844152430401,
              33.8632135931743
            ],
            [
              -117.18822893696625,
              33.863354832589955
            ],
            [
              -117.188174103544,
              33.8633882315064
            ],
            [
              -117.18811611297289,
              33.86341768648386
            ],
            [
              -117.18788801188694,
              33.86352288720346
            ],
            [
              -117.1878201187293,
              33.863550830616155
            ],
            [
              -117.18774939742804,
              33.86357336982145
            ],
            [
              -117.1874873956839,
              33.86364537035914
            ],
            [
              -117.18741626942308,
              33.863661962211076
            ],
            [
              -117.18734362851126,
              33.86367308637041
            ],
            [
              -117.18727007559885,
              33.86367865054777
            ],
            [
              -117.18719622090305,
              33.86367860858096
            ],
            [
              -117.18717269752773,
              33.86367770055261
            ],
            [
              -117.18710612122644,
              33.863690873175784
            ],
            [
              -117.1870884215527,
              33.863694201144185
            ],
            [
              -117.18686231989172,
              33.86373450145628
            ],
            [
              -117.18678805666843,
              33.86374475748516
            ],
            [
              -117.18671297336432,
              33.86374922425537
            ],
            [
              -117.18663771706328,
              33.86374786327128
            ],
            [
              -117.18660631983869,
              33.863744849958
            ],
            [
              -117.18660192558043,
              33.86374542495044
            ],
            [
              -117.18648105309856,
              33.86377778239642
            ],
            [
              -117.1864055627783,
              33.863794690322884
            ],
            [
              -117.18632847168611,
              33.8638054560169
            ],
            [
              -117.1863133799385,
              33.863806331505096
            ],
            [
              -117.18628222395621,
              33.86381904697357
            ],
            [
              -117.18619061851902,
              33.863851897181725
            ],
            [
              -117.18615161806751,
              33.86388699022981
            ],
            [
              -117.18613079135747,
              33.86390504762605
            ],
            [
              -117.18582809137617,
              33.86415794901555
            ],
            [
              -117.18574992328986,
              33.86421536035112
            ],
            [
              -117.18548652263667,
              33.86438506139775
            ],
            [
              -117.185414841978,
              33.86442631395244
            ],
            [
              -117.1853382714827,
              33.86446091581763
            ],
            [
              -117.18507987006231,
              33.86456311654051
            ],
            [
              -117.18499750357877,
              33.86459118652781
            ],
            [
              -117.18491194628628,
              33.864611559224215
            ],
            [
              -117.18450414331731,
              33.86468875981959
            ],
            [
              -117.18439912790716,
              33.864702675944564
            ],
            [
              -117.18386072371825,
              33.864744076279095
            ],
            [
              -117.1837463221424,
              33.86474610889828
            ],
            [
              -117.18347191998552,
              33.86473480881768
            ],
            [
              -117.18339282649585,
              33.86472829831393
            ],
            [
              -117.18331487699507,
              33.86471535960186
            ],
            [
              -117.18323882037603,
              33.86469611698901
            ],
            [
              -117.18316538734463,
              33.86467075534699
            ],
            [
              -117.18309528339918,
              33.86463951833528
            ],
            [
              -117.18302918205215,
              33.86460270606009
            ],
            [
              -117.18296771835918,
              33.86456067219103
            ],
            [
              -117.18291179207758,
              33.86451843708696
            ],
            [
              -117.18296705919454,
              33.86459618763984
            ],
            [
              -117.18299815332831,
              33.86464425463806
            ],
            [
              -117.18316255513416,
              33.86492495367384
            ],
            [
              -117.18320285297783,
              33.86500699338538
            ],
            [
              -117.18331455518418,
              33.86528509269097
            ],
            [
              -117.1833377634162,
              33.865355170280345
            ],
            [
              -117.18335182183014,
              33.865426920958626
            ],
            [
              -117.1833565680017,
              33.86549951586983
            ],
            [
              -117.18335687132563,
              33.86585111585686
            ],
            [
              -117.1833527760021,
              33.86591950250309
            ],
            [
              -117.18334041399004,
              33.8659871934087
            ],
            [
              -117.1833199119385,
              33.866053494973215
            ],
            [
              -117.18319721461025,
              33.86638079572409
            ],
            [
              -117.18316195448325,
              33.86645796317115
            ],
            [
              -117.18311568449064,
              33.86653097115737
            ],
            [
              -117.18295748559744,
              33.86674747203007
            ],
            [
              -117.18290463486062,
              33.86681126076683
            ],
            [
              -117.18284337994957,
              33.86686958472124
            ],
            [
              -117.18270727998197,
              33.86698508535083
            ],
            [
              -117.18265547504113,
              33.86702536891607
            ],
            [
              -117.18259965400668,
              33.867061728029334
            ],
            [
              -117.1825402426919,
              33.86709388533338
            ],
            [
              -117.18247769429932,
              33.86712159552324
            ],
            [
              -117.18228289323217,
              33.867198996070215
            ],
            [
              -117.18221449466508,
              33.86722303431517
            ],
            [
              -117.18214374776832,
              33.86724175479067
            ],
            [
              -117.18189234599403,
              33.867297855218
            ],
            [
              -117.18188163476698,
              33.8673001801956
            ],
            [
              -117.18163233298657,
              33.867352780598054
            ],
            [
              -117.18155810919825,
              33.86736539669593
            ],
            [
              -117.18148279799841,
              33.86737218007319
            ],
            [
              -117.18130959664066,
              33.86738098014596
            ],
            [
              -117.18123354765147,
              33.867381863079764
            ],
            [
              -117.18115773401696,
              33.86737679841073
            ],
            [
              -117.18108282271105,
              33.86736583069545
            ],
            [
              -117.18085462104018,
              33.86732313037688
            ],
            [
              -117.18078477259427,
              33.86730729874549
            ],
            [
              -117.18071689480229,
              33.86728633434917
            ],
            [
              -117.1806515284988,
              33.86726040422782
            ],
            [
              -117.18058919450606,
              33.867229714987026
            ],
            [
              -117.1803661936517,
              33.86710841419962
            ],
            [
              -117.18030923113108,
              33.86707441705301
            ],
            [
              -117.18025599806852,
              33.86703644617474
            ],
            [
              -117.18020689162371,
              33.8669947848604
            ],
            [
              -117.17991309196694,
              33.86672298344372
            ],
            [
              -117.17990731702581,
              33.86671697543578
            ],
            [
              -117.17989848182438,
              33.866741709235264
            ],
            [
              -117.17986915161855,
              33.866801954980026
            ],
            [
              -117.17983302245592,
              33.866859573085506
            ],
            [
              -117.179790428187,
              33.86691403111205
            ],
            [
              -117.1795882290489,
              33.86714723217215
            ],
            [
              -117.17953133722907,
              33.86720569498147
            ],
            [
              -117.17946700820569,
              33.86725852058008
            ],
            [
              -117.17924951493457,
              33.867418241439076
            ],
            [
              -117.17915013366837,
              33.86749518812711
            ],
            [
              -117.17909401492852,
              33.867534842433045
            ],
            [
              -117.17903381991528,
              33.86757009207172
            ],
            [
              -117.17852571791992,
              33.86783979384783
            ],
            [
              -117.17842883168636,
              33.867883801240744
            ],
            [
              -117.17828347610265,
              33.86793948950886
            ],
            [
              -117.17828072579223,
              33.867940609105965
            ],
            [
              -117.1782794599761,
              33.86794112326023
            ],
            [
              -117.17802993979156,
              33.868042250550154
            ],
            [
              -117.1780163208332,
              33.86804777709307
            ],
            [
              -117.17783078804602,
              33.868123031089226
            ],
            [
              -117.17777245841552,
              33.8681443699008
            ],
            [
              -117.17771230099203,
              33.86816182396692
            ],
            [
              -117.17731289826456,
              33.86826322473013
            ],
            [
              -117.17722923624311,
              33.86828047170244
            ],
            [
              -117.17714385246556,
              33.86829021476462
            ],
            [
              -117.1770577113349,
              33.86829234386949
            ],
            [
              -117.17683093729211,
              33.8682878892826
            ],
            [
              -117.1768022688378,
              33.86829016929807
            ],
            [
              -117.17657417504537,
              33.86830836083251
            ],
            [
              -117.17647578355437,
              33.86831119975668
            ],
            [
              -117.17637770480614,
              33.86830407124292
            ],
            [
              -117.17608110254082,
              33.86826727096707
            ],
            [
              -117.1760100282212,
              33.86825572596912
            ],
            [
              -117.17594047190278,
              33.86823893802041
            ],
            [
              -117.17579027090628,
              33.86819653771122
            ],
            [
              -117.17571991574567,
              33.86817357784901
            ],
            [
              -117.1756524274581,
              33.8681452557448
            ],
            [
              -117.17558839183975,
              33.86811181723474
            ],
            [
              -117.17552836471575,
              33.868073552565114
            ],
            [
              -117.17547286711552,
              33.868030793872926
            ],
            [
              -117.1754223807501,
              33.86798391230272
            ],
            [
              -117.17537734383104,
              33.867933314784906
            ],
            [
              -117.17533814726673,
              33.86787944050352
            ],
            [
              -117.17498165043406,
              33.86733363846251
            ],
            [
              -117.17497449236417,
              33.86732243009442
            ],
            [
              -117.1748733350296,
              33.86716038624484
            ],
            [
              -117.17463451793778,
              33.86728917091559
            ],
            [
              -117.17455545855788,
              33.86732673414887
            ],
            [
              -117.17447185226803,
              33.86735667269089
            ],
            [
              -117.1742284225253,
              33.86743064732547
            ],
            [
              -117.17405960968415,
              33.86764374074975
            ],
            [
              -117.17402102344064,
              33.867688386767384
            ],
            [
              -117.17385602394963,
              33.86786378760793
            ],
            [
              -117.17377863192824,
              33.86793499616957
            ],
            [
              -117.17332273172629,
              33.868298798214774
            ],
            [
              -117.17327180452163,
              33.868336162888255
            ],
            [
              -117.17284002797662,
              33.86862716152464
            ],
            [
              -117.17259802557396,
              33.868855851790265
            ],
            [
              -117.172545895577,
              33.868900750249715
            ],
            [
              -117.17248901985657,
              33.86894144307204
            ],
            [
              -117.17242788404639,
              33.868977582796816
            ],
            [
              -117.17213088289512,
              33.8691364838407
            ],
            [
              -117.17205577785406,
              33.86917210517078
            ],
            [
              -117.17197655581451,
              33.869200858786556
            ],
            [
              -117.17155595314765,
              33.86933175974872
            ],
            [
              -117.17145675191999,
              33.86935673846884
            ],
            [
              -117.17100254862717,
              33.86944513914859
            ],
            [
              -117.17092901505886,
              33.869456496909386
            ],
            [
              -117.17085453984456,
              33.869462155500116
            ],
            [
              -117.17049543702161,
              33.86947555561296
            ],
            [
              -117.170402483182,
              33.869474574773896
            ],
            [
              -117.17031027473442,
              33.86946472594561
            ],
            [
              -117.1697847707967,
              33.869382825331556
            ],
            [
              -117.16972338703685,
              33.869371184963356
            ],
            [
              -117.16966327071312,
              33.869355607680305
            ],
            [
              -117.16909156698294,
              33.86918690645476
            ],
            [
              -117.16900720016041,
              33.86915744702014
            ],
            [
              -117.16892734689368,
              33.86912024993821
            ],
            [
              -117.16849554516422,
              33.868891548441866
            ],
            [
              -117.16849396898314,
              33.86889071149391
            ],
            [
              -117.1682636680684,
              33.8687681106929
            ],
            [
              -117.16818250018721,
              33.86871874381283
            ],
            [
              -117.16808180046007,
              33.86864913484748
            ],
            [
              -117.16806123221235,
              33.86887232984893
            ],
            [
              -117.16813945461612,
              33.86906875562735
            ],
            [
              -117.168150286037,
              33.86909817533547
            ],
            [
              -117.16830698990472,
              33.869561074345306
            ],
            [
              -117.16832156482643,
              33.86961142580788
            ],
            [
              -117.16833147817228,
              33.86966255996364
            ],
            [
              -117.16837188071031,
              33.86993735969576
            ],
            [
              -117.16837788750153,
              33.87001451011719
            ],
            [
              -117.16837330132314,
              33.87009172836992
            ],
            [
              -117.16835818205801,
              33.870168005717694
            ],
            [
              -117.16831408349447,
              33.8703317059925
            ],
            [
              -117.16830000247619,
              33.87037668934086
            ],
            [
              -117.16813610627065,
              33.870835190348394
            ],
            [
              -117.16810383617737,
              33.87090936058816
            ],
            [
              -117.16798503781253,
              33.871139561291194
            ],
            [
              -117.16795125660352,
              33.871197303018356
            ],
            [
              -117.16791106010312,
              33.87125211074076
            ],
            [
              -117.1678648109604,
              33.87130348997205
            ],
            [
              -117.16781292643475,
              33.87135097715759
            ],
            [
              -117.16754182643857,
              33.87157657839989
            ],
            [
              -117.16748176537845,
              33.87162180299086
            ],
            [
              -117.16741660036845,
              33.87166180983673
            ],
            [
              -117.16734698016647,
              33.87169620064059
            ],
            [
              -117.16692267803778,
              33.87188260192989
            ],
            [
              -117.16684548912635,
              33.871912311036816
            ],
            [
              -117.16676499577075,
              33.87193511648049
            ],
            [
              -117.16668208255633,
              33.8719507676389
            ],
            [
              -117.1663442800109,
              33.87199916801761
            ],
            [
              -117.16628384572883,
              33.87200588715158
            ],
            [
              -117.16622297705888,
              33.87200879987397
            ],
            [
              -117.16571797307822,
              33.872017099950476
            ],
            [
              -117.16563303763238,
              33.872014780760296
            ],
            [
              -117.16528796807299,
              33.87199021311846
            ],
            [
              -117.16486110435568,
              33.872063333220524
            ],
            [
              -117.16474264346772,
              33.872100586681725
            ],
            [
              -117.16465805221752,
              33.87214043492188
            ],
            [
              -117.1645451470866,
              33.87222749046679
            ],
            [
              -117.16352114877496,
              33.873086230375385
            ],
            [
              -117.16346294249303,
              33.873130515820975
            ],
            [
              -117.16339985907862,
              33.87316988104008
            ],
            [
              -117.16231345524444,
              33.873781484994865
            ],
            [
              -117.16225565788616,
              33.87381116401688
            ],
            [
              -117.16133995357845,
              33.874238366929866
            ],
            [
              -117.16125697775269,
              33.87427205862788
            ],
            [
              -117.16116995006085,
              33.8742976686922
            ],
            [
              -117.1604319449506,
              33.87447617004071
            ],
            [
              -117.160343051303,
              33.874493215497374
            ],
            [
              -117.16025242508518,
              33.87450182647362
            ],
            [
              -117.15997785493651,
              33.874514930467825
            ],
            [
              -117.15877793803459,
              33.87504249369403
            ],
            [
              -117.15870621924272,
              33.87507038525715
            ],
            [
              -117.15863158287893,
              33.87509231373423
            ],
            [
              -117.15855473959186,
              33.87510807033316
            ],
            [
              -117.1584764210448,
              33.875117505027276
            ],
            [
              -117.15759591419622,
              33.87518720558665
            ],
            [
              -117.15751852459898,
              33.87519023071633
            ],
            [
              -117.15652051672554,
              33.87518943073246
            ],
            [
              -117.15644651670307,
              33.87518654879047
            ],
            [
              -117.1563731407381,
              33.875178046252444
            ],
            [
              -117.15537573325932,
              33.8750234450911
            ],
            [
              -117.15528942669478,
              33.87500594019873
            ],
            [
              -117.15520593294326,
              33.87498066733616
            ],
            [
              -117.15480173053432,
              33.87483696631455
            ],
            [
              -117.15477085221809,
              33.874825346945464
            ],
            [
              -117.15452605086496,
              33.874728046265936
            ],
            [
              -117.15447044283451,
              33.874703696684925
            ],
            [
              -117.15441726069389,
              33.87467583061232
            ],
            [
              -117.15399405921293,
              33.87443452906679
            ],
            [
              -117.15394016151905,
              33.87440097996582
            ],
            [
              -117.15388978179051,
              33.87436382119818
            ],
            [
              -117.15384326649512,
              33.87432330831286
            ],
            [
              -117.15350436699052,
              33.8740025066616
            ],
            [
              -117.15345583145363,
              33.873951862630946
            ],
            [
              -117.15341333189225,
              33.87389757518373
            ],
            [
              -117.15337725876395,
              33.87384014309169
            ],
            [
              -117.1533479434807,
              33.87378009401732
            ],
            [
              -117.15314294726198,
              33.873294792752255
            ],
            [
              -117.153119348626,
              33.87322820005501
            ],
            [
              -117.1531040592539,
              33.87315994016435
            ],
            [
              -117.15309724025585,
              33.873090732450905
            ],
            [
              -117.15308014464728,
              33.872625632327825
            ],
            [
              -117.15308227184406,
              33.87255174322304
            ],
            [
              -117.15309405075256,
              33.87247848878103
            ],
            [
              -117.15311534072173,
              33.87240674357541
            ],
            [
              -117.15327934438822,
              33.87196024458267
            ],
            [
              -117.15330997021222,
              33.871890711594425
            ],
            [
              -117.15334952739946,
              33.87182438897437
            ],
            [
              -117.15365592992138,
              33.87137429069611
            ],
            [
              -117.15370217886375,
              33.87131401769772
            ],
            [
              -117.15375249443686,
              33.871261603683514
            ],
            [
              -117.15365822145597,
              33.87119327129476
            ],
            [
              -117.15332461920782,
              33.87111147778794
            ],
            [
              -117.15325175041902,
              33.87109042344065
            ],
            [
              -117.15318160874625,
              33.87106369044445
            ],
            [
              -117.15311482852483,
              33.871031520563676
            ],
            [
              -117.15305201368842,
              33.87099420473169
            ],
            [
              -117.15299373230688,
              33.87095208041969
            ],
            [
              -117.1529405114489,
              33.8709055285846
            ],
            [
              -117.15289283241536,
              33.8708549702236
            ],
            [
              -117.15285112638661,
              33.87080086256658
            ],
            [
              -117.15281577052336,
              33.87074369494104
            ],
            [
              -117.15278708455611,
              33.87068398434659
            ],
            [
              -117.1527653278938,
              33.870622270779265
            ],
            [
              -117.15275069727855,
              33.87055911234795
            ],
            [
              -117.1526815009406,
              33.87015911189343
            ],
            [
              -117.15267422391092,
              33.870096686277215
            ],
            [
              -117.15267390968414,
              33.87003396677133
            ],
            [
              -117.15268056094655,
              33.869971492597934
            ],
            [
              -117.15269412049987,
              33.86990980086874
            ],
            [
              -117.1527144717535,
              33.86984942196743
            ],
            [
              -117.15274143972742,
              33.86979087498979
            ],
            [
              -117.15326137613663,
              33.86880169766069
            ],
            [
              -117.15350763166433,
              33.86808649630033
            ],
            [
              -117.15351744281047,
              33.8677784188143
            ],
            [
              -117.15347785937145,
              33.867445700510224
            ],
            [
              -117.15325708144383,
              33.86712873856017
            ],
            [
              -117.15322116548658,
              33.86707093925879
            ],
            [
              -117.15319207678884,
              33.86701052742293
            ],
            [
              -117.15317008478863,
              33.866948062655695
            ],
            [
              -117.1531553931848,
              33.86688412357559
            ],
            [
              -117.15314813805067,
              33.86681930245651
            ],
            [
              -117.15311684351865,
              33.866239002238494
            ],
            [
              -117.15311756998707,
              33.86616685579238
            ],
            [
              -117.15312750385901,
              33.86609518428207
            ],
            [
              -117.15314653209823,
              33.866024803082894
            ],
            [
              -117.15325875656337,
              33.86569322538567
            ],
            [
              -117.15316768300139,
              33.86537856173676
            ],
            [
              -117.15315316667896,
              33.86531536799227
            ],
            [
              -117.15314591366182,
              33.86525130955262
            ],
            [
              -117.15312101785737,
              33.86480590937962
            ],
            [
              -117.15312133427634,
              33.86473766957537
            ],
            [
              -117.15312989091272,
              33.86466980361449
            ],
            [
              -117.15314660066375,
              33.86460300218896
            ],
            [
              -117.15326088194227,
              33.864239038579804
            ],
            [
              -117.15333324478209,
              33.86366825898825
            ],
            [
              -117.15334324777321,
              33.863612050834874
            ],
            [
              -117.15335887057147,
              33.86355674139679
            ],
            [
              -117.15338000291713,
              33.863502720988805
            ],
            [
              -117.15353020263528,
              33.86316724882256
            ],
            [
              -117.15359755587593,
              33.86163461386389
            ],
            [
              -117.15336169564908,
              33.861552333177094
            ],
            [
              -117.15307177369863,
              33.86148677369783
            ],
            [
              -117.15299839583277,
              33.86146701184294
            ],
            [
              -117.15292759990423,
              33.861441524571354
            ],
            [
              -117.15286002614836,
              33.86141054237527
            ],
            [
              -117.1527962856592,
              33.861374345439586
            ],
            [
              -117.15273695486292,
              33.86133326110786
            ],
            [
              -117.1526825703047,
              33.86128766092188
            ],
            [
              -117.15263362379679,
              33.86123795726153
            ],
            [
              -117.15259055797064,
              33.86118459961513
            ],
            [
              -117.15255376227447,
              33.86112807051461
            ],
            [
              -117.15252356945133,
              33.86106888117145
            ],
            [
              -117.15250025253067,
              33.8610075668535
            ],
            [
              -117.15248402235939,
              33.86094468204439
            ],
            [
              -117.15247502569576,
              33.86088079542884
            ],
            [
              -117.15247334388272,
              33.86081648474998
            ],
            [
              -117.15247899211293,
              33.860752331584585
            ],
            [
              -117.15249191929182,
              33.86068891608369
            ],
            [
              -117.15262872386906,
              33.86016881693775
            ],
            [
              -117.15264366388617,
              33.860120578553754
            ],
            [
              -117.15266281932865,
              33.86007338841486
            ],
            [
              -117.15289622320995,
              33.8595612898192
            ],
            [
              -117.15292793788515,
              33.85950077739548
            ],
            [
              -117.15296657478625,
              33.85944313359189
            ],
            [
              -117.15301176558911,
              33.85938890790432
            ],
            [
              -117.15306307949645,
              33.85933861724408
            ],
            [
              -117.15312002734431,
              33.85929274101065
            ],
            [
              -117.15318206626556,
              33.85925171652184
            ],
            [
              -117.153689464696,
              33.858948618442234
            ],
            [
              -117.15375467810253,
              33.858913476160055
            ],
            [
              -117.15382362120553,
              33.85888369830564
            ],
            [
              -117.15389566193923,
              33.85885955787886
            ],
            [
              -117.15397013984106,
              33.85884127619608
            ],
            [
              -117.15404637210625,
              33.85882902086136
            ],
            [
              -117.15412365984743,
              33.85882290422985
            ],
            [
              -117.1542012945014,
              33.85882298237796
            ],
            [
              -117.15427856432481,
              33.858829254589196
            ],
            [
              -117.15430781411773,
              33.858832815070585
            ],
            [
              -117.15432774689427,
              33.85879304149036
            ],
            [
              -117.15448439178863,
              33.858215512271485
            ],
            [
              -117.15450661576529,
              33.858149375601606
            ],
            [
              -117.15453676440465,
              33.858085460149155
            ],
            [
              -117.15457452683533,
              33.85802442492834
            ],
            [
              -117.15461951368465,
              33.85796689925471
            ],
            [
              -117.15467126109391,
              33.85791347625678
            ],
            [
              -117.15472923550138,
              33.85786470676061
            ],
            [
              -117.15479283914404,
              33.85782109361071
            ],
            [
              -117.15486141622097,
              33.85778308648572
            ],
            [
              -117.15582081203308,
              33.85730808967321
            ],
            [
              -117.15588637697459,
              33.85727893062913
            ],
            [
              -117.15595486603077,
              33.857254901283376
            ],
            [
              -117.15602570408,
              33.85723620341624
            ],
            [
              -117.15609829627707,
              33.85722299403819
            ],
            [
              -117.15617203304771,
              33.85721538407144
            ],
            [
              -117.15624629520708,
              33.85721343741858
            ],
            [
              -117.15632045915883,
              33.85721717042609
            ],
            [
              -117.15661173948983,
              33.85724304925238
            ],
            [
              -117.156916126759,
              33.85702627242208
            ],
            [
              -117.15741903296595,
              33.85654248198873
            ],
            [
              -117.15767172929912,
              33.85610729334366
            ],
            [
              -117.15770719485919,
              33.856052744191174
            ],
            [
              -117.15774850319295,
              33.85600113627161
            ],
            [
              -117.15816840486903,
              33.85552533845984
            ],
            [
              -117.15817993186037,
              33.85551259470135
            ],
            [
              -117.15862936238155,
              33.85502772754267
            ],
            [
              -117.15914481097171,
              33.8541739948928
            ],
            [
              -117.15918670133455,
              33.85411277624642
            ],
            [
              -117.15923600042261,
              33.85405552726741
            ],
            [
              -117.15929217283059,
              33.85400286968316
            ],
            [
              -117.15935460851189,
              33.85395537535718
            ],
            [
              -117.1594226294039,
              33.85391356007888
            ],
            [
              -117.15980747814557,
              33.85370186800029
            ],
            [
              -117.16014177313416,
              33.85343917985644
            ],
            [
              -117.16049834010556,
              33.85310504184372
            ],
            [
              -117.16077416086279,
              33.85273622469661
            ],
            [
              -117.16082306058831,
              33.85267791009631
            ],
            [
              -117.1612176618291,
              33.85225641210944
            ],
            [
              -117.16124418957996,
              33.85222953185834
            ],
            [
              -117.16177229049882,
              33.85172163444261
            ],
            [
              -117.16183903249978,
              33.851664610840885
            ],
            [
              -117.16210063149101,
              33.85146598758095
            ],
            [
              -117.16248768169454,
              33.851002558874896
            ],
            [
              -117.16281977530129,
              33.85055381720302
            ],
            [
              -117.16285365282968,
              33.85051166390349
            ],
            [
              -117.16289122297798,
              33.85047174854277
            ],
            [
              -117.16326162373213,
              33.85010725037263
            ],
            [
              -117.16334049184756,
              33.850039789570644
            ],
            [
              -117.1636375915,
              33.84981879085377
            ],
            [
              -117.16370006594981,
              33.8497767589794
            ],
            [
              -117.16417076455421,
              33.849490960779576
            ],
            [
              -117.16423098837289,
              33.849457712679126
            ],
            [
              -117.16429451916089,
              33.84942906783324
            ],
            [
              -117.16466817152582,
              33.84927812895313
            ],
            [
              -117.16475104458252,
              33.84921824831849
            ],
            [
              -117.164838966341,
              33.84908044307586
            ],
            [
              -117.16487432271884,
              33.84903034382251
            ],
            [
              -117.16491470451618,
              33.84898296281261
            ],
            [
              -117.16495981341228,
              33.848938650064106
            ],
            [
              -117.16500931616747,
              33.84889773292835
            ],
            [
              -117.16565161554058,
              33.848410635731625
            ],
            [
              -117.16565834210242,
              33.8484055913783
            ],
            [
              -117.16623073026778,
              33.84798113704508
            ],
            [
              -117.1664809365565,
              33.84766632623751
            ],
            [
              -117.16676522292622,
              33.8470380214757
            ],
            [
              -117.16703538825672,
              33.8463147049696
            ],
            [
              -117.16705228009319,
              33.84612228680743
            ],
            [
              -117.16705510111586,
              33.846096787160796
            ],
            [
              -117.1670749050205,
              33.84594850169067
            ],
            [
              -117.16681375091017,
              33.84559931556361
            ],
            [
              -117.16677416882698,
              33.845539946308755
            ],
            [
              -117.16674192353688,
              33.84547756355804
            ],
            [
              -117.16671734029053,
              33.84541279658298
            ],
            [
              -117.16670066704768,
              33.84534629870399
            ],
            [
              -117.16669207197656,
              33.8452787407
            ],
            [
              -117.16669164175823,
              33.84521080404216
            ],
            [
              -117.16669938071313,
              33.845143174019505
            ],
            [
              -117.16671521075801,
              33.84507653282646
            ],
            [
              -117.16685412256257,
              33.84461471994408
            ],
            [
              -117.16687825834265,
              33.844424255522
            ],
            [
              -117.16683465145348,
              33.844369876869536
            ],
            [
              -117.16679389096899,
              33.84431324766579
            ],
            [
              -117.16675994459209,
              33.84425357105138
            ],
            [
              -117.16673313604672,
              33.84419141614779
            ],
            [
              -117.16671372098327,
              33.844127375710045
            ],
            [
              -117.16670188454108,
              33.844062060473696
            ],
            [
              -117.16669773958331,
              33.84399609333036
            ],
            [
              -117.16670132562139,
              33.84393010338723
            ],
            [
              -117.16671260843876,
              33.843864719967506
            ],
            [
              -117.1669346169586,
              33.84291102135467
            ],
            [
              -117.16694908266504,
              33.84285966733695
            ],
            [
              -117.16696830037223,
              33.84280941012836
            ],
            [
              -117.16735140719015,
              33.84192781244271
            ],
            [
              -117.16738612582847,
              33.84185977504392
            ],
            [
              -117.16742953729064,
              33.84179530655152
            ],
            [
              -117.16748112274931,
              33.841735177425505
            ],
            [
              -117.16754026569396,
              33.84168010626481
            ],
            [
              -117.16820556572164,
              33.84112490931484
            ],
            [
              -117.16826612949033,
              33.84107922012301
            ],
            [
              -117.1683318936831,
              33.84103884615079
            ],
            [
              -117.16840219119503,
              33.84100419694325
            ],
            [
              -117.16847630893898,
              33.84097562397423
            ],
            [
              -117.16855349507864,
              33.84095341708113
            ],
            [
              -117.16863296665477,
              33.84093780152525
            ],
            [
              -117.16871391752669,
              33.840928935706856
            ],
            [
              -117.16934371261515,
              33.8408867360487
            ],
            [
              -117.1693476723173,
              33.84088647886199
            ],
            [
              -117.17025706521686,
              33.84082927932702
            ],
            [
              -117.17028832212934,
              33.840827819045884
            ],
            [
              -117.17101979271425,
              33.84080545584328
            ],
            [
              -117.17101459717591,
              33.84076462512333
            ],
            [
              -117.17101019347324,
              33.84068119824133
            ],
            [
              -117.1710160960925,
              33.840403698271444
            ],
            [
              -117.17102052997028,
              33.840344043291886
            ],
            [
              -117.17103125718484,
              33.840284947788064
            ],
            [
              -117.1710481939714,
              33.840226873143656
            ],
            [
              -117.17116169668205,
              33.839901073841816
            ],
            [
              -117.17118911532529,
              33.83983523489752
            ],
            [
              -117.17122450758667,
              33.839772099912594
            ],
            [
              -117.17126749767033,
              33.839712339225365
            ],
            [
              -117.17131762911293,
              33.83965658734602
            ],
            [
              -117.17137436963074,
              33.83960543621999
            ],
            [
              -117.17143711677134,
              33.839559428943254
            ],
            [
              -117.17150520431055,
              33.839519053996185
            ],
            [
              -117.17177740324077,
              33.839374654946255
            ],
            [
              -117.17185200796384,
              33.839339551628456
            ],
            [
              -117.17221260605483,
              33.839190252673475
            ],
            [
              -117.17223988694667,
              33.83917948083724
            ],
            [
              -117.17275078403433,
              33.83898738220702
            ],
            [
              -117.17282769108466,
              33.83896231335018
            ],
            [
              -117.1729072551167,
              33.83894390276133
            ],
            [
              -117.17298865069836,
              33.83893234143957
            ],
            [
              -117.17307103339762,
              33.83892774932687
            ],
            [
              -117.17315354854252,
              33.83893017406363
            ],
            [
              -117.173235340087,
              33.838939590494554
            ],
            [
              -117.173878935279,
              33.83904178972968
            ],
            [
              -117.17395235201658,
              33.83905643307982
            ],
            [
              -117.17402381816417,
              33.83907671160188
            ],
            [
              -117.17409271402727,
              33.8391024494579
            ],
            [
              -117.17476334106362,
              33.83938495577933
            ],
            [
              -117.17503413317061,
              33.83925954778209
            ],
            [
              -117.17511660658177,
              33.83922629183744
            ],
            [
              -117.17520304948977,
              33.839201012307704
            ],
            [
              -117.17521655401016,
              33.83919776511408
            ],
            [
              -117.17525806856219,
              33.83914567590815
            ],
            [
              -117.17530913742158,
              33.83909365587677
            ],
            [
              -117.17536614357793,
              33.83904612418357
            ],
            [
              -117.17542852363424,
              33.83900355058084
            ],
            [
              -117.17549566108637,
              33.83896635581981
            ],
            [
              -117.17556689241603,
              33.838934907492515
            ],
            [
              -117.17564151364806,
              33.8389095163992
            ],
            [
              -117.17571878730743,
              33.83889043347691
            ],
            [
              -117.17579794970723,
              33.83887784731965
            ],
            [
              -117.17581591882363,
              33.83887651198744
            ],
            [
              -117.17585255089257,
              33.83886244474481
            ],
            [
              -117.1758528901369,
              33.83886234711953
            ],
            [
              -117.17583235399509,
              33.83873782328495
            ],
            [
              -117.17582529384225,
              33.83866955975989
            ],
            [
              -117.17582654541205,
              33.83860105043325
            ],
            [
              -117.17583609584351,
              33.83853299821271
            ],
            [
              -117.17585384712962,
              33.83846610131446
            ],
            [
              -117.17587961712364,
              33.83840104609944
            ],
            [
              -117.17591314140859,
              33.838338500031455
            ],
            [
              -117.175954076011,
              33.83827910482915
            ],
            [
              -117.17600200093048,
              33.83822346988217
            ],
            [
              -117.17605642444941,
              33.838172165999204
            ],
            [
              -117.17611678817826,
              33.83812571955164
            ],
            [
              -117.17618247278477,
              33.83808460707339
            ],
            [
              -117.1763978720235,
              33.83796350785607
            ],
            [
              -117.17646611156196,
              33.83792908885744
            ],
            [
              -117.17653807322132,
              33.83790043095048
            ],
            [
              -117.17661306072068,
              33.83787781141972
            ],
            [
              -117.17669034850414,
              33.83786144912419
            ],
            [
              -117.17676918876046,
              33.837851502379806
            ],
            [
              -117.1768488186583,
              33.83784806742781
            ],
            [
              -117.17692846772655,
              33.83785117750354
            ],
            [
              -117.17700736530865,
              33.83786080251494
            ],
            [
              -117.17708474801869,
              33.83787684933363
            ],
            [
              -117.17715986712705,
              33.837899162696026
            ],
            [
              -117.1772319958046,
              33.83792752670542
            ],
            [
              -117.17730043615465,
              33.83796166692088
            ],
            [
              -117.17736452596544,
              33.838001253012365
            ],
            [
              -117.17742364511714,
              33.83804590195685
            ],
            [
              -117.17747722158198,
              33.838095181744045
            ],
            [
              -117.17752473695894,
              33.83814861555617
            ],
            [
              -117.17756573148982,
              33.838205686381386
            ],
            [
              -117.17759980850808,
              33.838265842015964
            ],
            [
              -117.1777732107887,
              33.838615493278894
            ],
            [
              -117.1924849653693,
              33.85058985142676
            ],
            [
              -117.19253879863375,
              33.85063815029344
            ],
            [
              -117.19258673835725,
              33.85069059390592
            ],
            [
              -117.19262832875263,
              33.850746683668284
            ],
            [
              -117.19328103436331,
              33.851731179944814
            ],
            [
              -117.19331393852327,
              33.85178666116271
            ],
            [
              -117.1933406260214,
              33.85184441974574
            ],
            [
              -117.19681770932425,
              33.860534242036145
            ],
            [
              -117.19695792699112,
              33.86082471440915
            ],
            [
              -117.19698419971532,
              33.860888021044914
            ],
            [
              -117.19700283728734,
              33.86095318528876
            ],
            [
              -117.19701365687764,
              33.861019567958145
            ],
            [
              -117.19701655234067,
              33.8610865179178
            ],
            [
              -117.19701149525676,
              33.861153378466504
            ],
            [
              -117.19699853521168,
              33.86121949377854
            ],
            [
              -117.19697779931089,
              33.86128421533663
            ],
            [
              -117.19694949093353,
              33.86134690829324
            ],
            [
              -117.19691388773812,
              33.86140695769782
            ],
            [
              -117.1968713389396,
              33.86146377452899
            ],
            [
              -117.19682226188439,
              33.861516801472405
            ],
            [
              -117.196767137957,
              33.86156551838755
            ],
            [
              -117.19660183788983,
              33.86169781913013
            ],
            [
              -117.19654391204999,
              33.861739968983365
            ],
            [
              -117.19648146222964,
              33.86177735357087
            ],
            [
              -117.1964150496373,
              33.861809636930865
            ],
            [
              -117.19634527109567,
              33.86183652894407
            ],
            [
              -117.19627275367787,
              33.861857787941105
            ],
            [
              -117.19619814907216,
              33.86187322287442
            ],
            [
              -117.19612212772482,
              33.8618826950353
            ],
            [
              -117.1956198238279,
              33.86192509537711
            ],
            [
              -117.19554014669077,
              33.86192852957543
            ],
            [
              -117.19546045070513,
              33.86192541458939
            ],
            [
              -117.19538150749877,
              33.86191578057866
            ],
            [
              -117.19530408141051,
              33.86189972082097
            ],
            [
              -117.19522892208924,
              33.861877390808985
            ],
            [
              -117.19484437899996,
              33.861745016970865
            ],
            [
              -117.19413699992609,
              33.861724628141936
            ],
            [
              -117.19406016390751,
              33.86171935374168
            ],
            [
              -117.19398427569429,
              33.86170801526325
            ],
            [
              -117.19391002137857,
              33.86169071521585
            ],
            [
              -117.19309081590265,
              33.86146431356397
            ],
            [
              -117.19304663208493,
              33.861450535526316
            ]
          ],
          [
            [
              -117.16841680937164,
              33.862123402111045
            ],
            [
              -117.16841707909268,
              33.86208701930448
            ],
            [
              -117.1684226397553,
              33.8620120085655
            ],
            [
              -117.16843814053026,
              33.86193797539681
            ],
            [
              -117.16853674361597,
              33.861584276010355
            ],
            [
              -117.16855844343175,
              33.861520696374555
            ],
            [
              -117.1685874787775,
              33.86145918741253
            ],
            [
              -117.16862357232822,
              33.86140033658155
            ],
            [
              -117.16875307214363,
              33.86121243724372
            ],
            [
              -117.16884607986997,
              33.86100339431491
            ],
            [
              -117.16889483726196,
              33.8607032038499
            ],
            [
              -117.16882282190385,
              33.86044470136807
            ],
            [
              -117.16860990287725,
              33.86017221322647
            ],
            [
              -117.1685608640078,
              33.86016837504709
            ],
            [
              -117.16848646762169,
              33.86015963551856
            ],
            [
              -117.16841336027977,
              33.860145188625246
            ],
            [
              -117.16834216968455,
              33.8601251584088
            ],
            [
              -117.16827350708014,
              33.86009971684948
            ],
            [
              -117.16765015239801,
              33.8598392580725
            ],
            [
              -117.1672142973314,
              33.85978845889486
            ],
            [
              -117.16666966045877,
              33.85982925099508
            ],
            [
              -117.16615976574808,
              33.859868460649466
            ],
            [
              -117.16579273005665,
              33.85996247275253
            ],
            [
              -117.16577284935298,
              33.85997387950034
            ],
            [
              -117.16538255699398,
              33.860482968027725
            ],
            [
              -117.16536276863891,
              33.86050757478143
            ],
            [
              -117.16478997132185,
              33.86118717781277
            ],
            [
              -117.16475273647168,
              33.86122797608152
            ],
            [
              -117.16471190398916,
              33.86126630402303
            ],
            [
              -117.16420677773165,
              33.86170570699642
            ],
            [
              -117.16420947026064,
              33.8617123191735
            ],
            [
              -117.16433252998213,
              33.862077461543045
            ],
            [
              -117.16447676006173,
              33.862407003740636
            ],
            [
              -117.16448330539669,
              33.862422543391865
            ],
            [
              -117.16461791747906,
              33.86275502027709
            ],
            [
              -117.16482450622385,
              33.86308582994369
            ],
            [
              -117.1650209288471,
              33.86328787032193
            ],
            [
              -117.16517665347745,
              33.86338256916535
            ],
            [
              -117.16525869382342,
              33.86339798171362
            ],
            [
              -117.16620560067236,
              33.863247144196265
            ],
            [
              -117.16684939187785,
              33.86312273367536
            ],
            [
              -117.16734806091944,
              33.86277606089726
            ],
            [
              -117.16782159750211,
              33.86241733156218
            ],
            [
              -117.16788571596555,
              33.8623735303971
            ],
            [
              -117.16795485874006,
              33.86233541783361
            ],
            [
              -117.1682758573271,
              33.86217751889555
            ],
            [
              -117.16835411470184,
              33.862143664797216
            ],
            [
              -117.16841680937164,
              33.862123402111045
            ]
          ]
        ]
      }
    }
  ]
}